FID;Country;Latitude;Longitude;Region;SiteID;Site;Architecture;LabNumber;C14;STD;Delta13C;Delta15N;Marine resources %;Aquatic resources %;CombineGroup;Material;Context;Context.classification;Source;Main.bibliography;Bibliography;Observations
137;Spain;36,8158333;-5,633611111;South;S1;Alberite;Gallery grave;Beta-80598;5020;70;-25;n/a;n/a;n/a;n/a;Charcoal;n/a;Indet.;García Sanjuán et al. 2011, Tab. 2;Ramos Muñoz/Giles Pacheco 1996;García Sanjuán et al. 2011, Tab. 2,Ramos Muñoz/Giles Pacheco 1996;n/a
139;Spain;36,8158333;-5,633611111;South;S1;Alberite;Gallery grave;Beta-80600;5110;140;-25;n/a;n/a;n/a;n/a;Charcoal;n/a;Indet.;García Sanjuán et al. 2011, Tab. 2;Ramos Muñoz/Giles Pacheco 1996;García Sanjuán et al. 2011, Tab. 2,Ramos Muñoz/Giles Pacheco 1996;n/a
141;Spain;36,8158333;-5,633611111;South;S1;Alberite;Gallery grave;Beta-80602;5320;70;-25;n/a;n/a;n/a;n/a;Charcoal;n/a;Indet.;García Sanjuán et al. 2011, Tab. 2;Ramos Muñoz/Giles Pacheco 1996;García Sanjuán et al. 2011, Tab. 2,Ramos Muñoz/Giles Pacheco 1996;n/a
95;Spain;37,18333333;-4,407777778;South;S2;Alcaide 20;Rock-cut tomb with corridor;GrN-19197;3755;210;n/a;n/a;n/a;n/a;n/a;Human bone;n/a;TAQ;Marqués Merelo et al. 2004;n/a;Marqués Merelo et al. 2004,;n/a
99;Spain;37,18333333;-4,407777778;South;S2;Alcaide 20;Rock-cut tomb with corridor;GrN-19198;3830;180;n/a;n/a;n/a;n/a;n/a;Human bone;n/a;TAQ;Marqués Merelo et al, 2004;n/a;Marqués Merelo et al, 2004,;n/a
385;Spain;39,89729398;4,18944583;East;S3;Alcaidús;Tomb with triple outer wall/sepulcro de triple paramento;KIA-13991;3075;35;n/a;n/a;n/a;n/a;n/a;Human bone;Chamber;TAQ;Micó Pérez 2005, 29;n/a;Micó Pérez 2005, 29,;n/a
387;Spain;39,89729398;4,18944583;East;S3;Alcaidús;Tomb with triple outer wall/sepulcro de triple paramento;KIA-13990;3110;30;n/a;n/a;n/a;n/a;n/a;Human bone;Chamber;TAQ;Micó Pérez 2005, 29;n/a;Micó Pérez 2005, 29,;n/a
391;Spain;39,89729398;4,18944583;East;S3;Alcaidús;Tomb with triple outer wall/sepulcro de triple paramento;KIA-13992;3220;35;n/a;n/a;n/a;n/a;n/a;Human bone;Chamber;TAQ;Micó Pérez 2005, 28;n/a;Micó Pérez 2005, 28,;n/a
398;Spain;39,89729398;4,18944583;East;S3;Alcaidús;Tomb with triple outer wall/sepulcro de triple paramento;KIA-13988;3340;30;n/a;n/a;n/a;n/a;n/a;Human bone;Chamber;TAQ;Micó Pérez 2005, 28;n/a;Micó Pérez 2005, 28,;n/a
399;Spain;39,89729398;4,18944583;East;S3;Alcaidús;Tomb with triple outer wall/sepulcro de triple paramento;KIA-13989;3360;30;n/a;n/a;n/a;n/a;n/a;Human bone;Chamber;TAQ;Micó Pérez 2005, 27;n/a;Micó Pérez 2005, 27,;n/a
28;Portugal;37,199093;-8,588028;Southwest;S4;Alcalar 7;Passage grave/tholos;Beta-180980;3860;40;n/a;n/a;n/a;n/a;n/a;Charcoal;Entrance area;TAQ;Morán/Parreira 2004;n/a;Carvalho 2008;n/a
36;Portugal;37,199093;-8,588028;Southwest;S4;Alcalar 7;Passage grave/tholos;Sac-1794;5640;100;n/a;n/a;n/a;n/a;n/a;Charcoal;Under tumulus, layer 1;TPQ;Morán/Parreira 2004;n/a;Carvalho 2008;n/a
37;Portugal;37,199093;-8,588028;Southwest;S4;Alcalar 7;Passage grave/tholos;Beta-180981;5690;40;n/a;n/a;n/a;n/a;n/a;Charcoal;Under tumulus. layer 2;TPQ;Morán/Parreira 2004;n/a;Carvalho 2008;n/a
40;Portugal;37,199093;-8,588028;Southwest;S4;Alcalar 7;Passage grave/tholos;Beta-180978;5810;40;n/a;n/a;n/a;n/a;n/a;Charcoal;Under tumulus, layer 1;TPQ;Morá/Parreira 2004;n/a;Carvalho 2008;n/a
8;Portugal;38,39055869;-7,48467607;Southwest;S5;Anta 2 da Herdade dos Cebolinhos;Megalithic grave;Beta-177471;3840;40;n/a;n/a;n/a;n/a;n/a;Human bone;Chamber;TAQ;Gonçalvez 2003;n/a;Gonçalvez 2003,;n/a
9;Portugal;38,39055869;-7,48467607;Southwest;S5;Anta 2 da Herdade dos Cebolinhos;Megalithic grave;Beta-176899;3900;40;n/a;n/a;n/a;n/a;n/a;Human bone;Chamber;TAQ;Gonçalvez 2003;n/a;Gonçalvez 2003,;n/a
194;Portugal;40,712496;-8,243947;West;S6;Antelas;Passage grave;OxA-5433;4655;60;n/a;n/a;n/a;n/a;n/a;Charcoal;Painting with black charcoal;TAQ;Senna-Martinez/Ventura 2008, 324.;n/a;Senna-Martinez/Ventura 2008, 324.,;n/a
198;Portugal;40,712496;-8,243947;West;S6;Antelas;Passage grave;OxA-5498;5070;65;n/a;n/a;n/a;n/a;n/a;Charcoal;Corridor;Indet.;Senna-Martinez/Ventura 2008, 324.;n/a;Senna-Martinez/Ventura 2008, 324.,;n/a
201;Portugal;40,712496;-8,243947;West;S6;Antelas;Passage grave;OxA-5497;5295;60;n/a;n/a;n/a;n/a;n/a;Charcoal;Corridor;TPQ;Senna-Martinez/Ventura 2008, 324.;n/a;Senna-Martinez/Ventura 2008, 324.,;n/a
202;Portugal;40,712496;-8,243947;West;S6;Antelas;Passage grave;OxA-5496;5330;60;n/a;n/a;n/a;n/a;n/a;Charcoal;Corridor;TPQ;Senna-Martinez/Ventura 2008, 324.;n/a;Senna-Martinez/Ventura 2008, 324.,;n/a
203;Portugal;41,046456;-7,471348;West;S7;Areita 1;Passage grave;CSIC-1327;5699;31;n/a;n/a;n/a;n/a;n/a;Charcoal;Under the floor of the chamber;TPQ;Senna-Martinez/Ventura 2008,324;n/a;Senna-Martinez/Ventura 2008,324,;n/a
218;Portugal;41,046456;-7,471348;West;S7;Areita 1;Passage grave;GrA-18497;4840;60;n/a;n/a;n/a;n/a;n/a;Human bone;Ground level chamber;TAQ;Cruz et al. 2003;n/a;Cruz et al. 2003,;n/a
243;Portugal;41,046456;-7,471348;West;S7;Areita 1;Passage grave;GrA-18518;5170;60;n/a;n/a;n/a;n/a;n/a;Human bone;Ground level chamber;Indet./TPQ?;Cruz et al. 2003;n/a;Cruz et al. 2003,;n/a
246;Portugal;41,046456;-7,471348;West;S7;Areita 1;Passage grave;Sac-1508;5830;50;n/a;n/a;n/a;n/a;n/a;Charcoal;Basement chamber;TPQ;Cruz et al. 2003;Gomes et al. 1998;Cruz et al. 2003,Gomes et al. 1998;n/a
247;Portugal;41,046456;-7,471348;West;S7;Areita 1;Passage grave;Sac-1514;5970;60;n/a;n/a;n/a;n/a;n/a;Charcoal;Basement chamber;TPQ;Cruz et al. 2003;Gomes et al. 1998;Cruz et al. 2003,Gomes et al. 1998;n/a
430;Spain;42,71583333;-3,679166667;North;S8;Arnillas;Passage grave;GrN-12124;4575;40;n/a;n/a;n/a;n/a;n/a;Human bone;Entrance chamber layer 6;TAQ;Boaventura 2009, annex 33;Alonso e Rojo 1987;Boaventura 2009, annex 33,Alonso e Rojo 1987;n/a
438;Spain;42,71583333;-3,679166667;North;S8;Arnillas;Passage grave;GrN-18671;4720;150;n/a;n/a;n/a;n/a;n/a;Charcoal;Layer 3;TAQ;Boaventura 2009, annex 33;Delibes de Castro/Rojo Guerra 1997 ;Boaventura 2009, annex 33,Delibes de Castro/Rojo Guerra 1997 ;n/a
204;Portugal;40,510692;-8,004508;West;S9;Arquinha da Moura;Megalithic grave;GrA-9575;3030;50;n/a;n/a;n/a;n/a;n/a;Charcoal;Basement corridor;TAQ/after use;Cruz et al 2003;n/a;Cruz et al 2003,;n/a
207;Portugal;40,510692;-8,004508;West;S9;Arquinha da Moura;Megalithic grave;GrA-9255;3650;50;n/a;n/a;n/a;n/a;n/a;Human bone;Ground level corridor;TAQ;Cruz et al 2003;n/a;Cruz et al 2003,;n/a
209;Portugal;40,510692;-8,004508;West;S9;Arquinha da Moura;Megalithic grave;GrA-23198;3710;60;n/a;n/a;n/a;n/a;n/a;Charcoal;Basement chamber;TPQ?;Cruz et al 2003;n/a;Cruz et al 2003,;n/a
210;Portugal;40,510692;-8,004508;West;S9;Arquinha da Moura;Megalithic grave;GrA-9577;3740;50;n/a;n/a;n/a;n/a;n/a;Human bone;Lower level;TAQ;Cruz et al 2003;n/a;Cruz et al 2003,;n/a
211;Portugal;40,510692;-8,004508;West;S9;Arquinha da Moura;Megalithic grave;GrA-9573;4160;50;n/a;n/a;n/a;n/a;n/a;Charcoal;Basement chamber;TPQ;Cruz et al 2003;n/a;Cruz et al 2003,;n/a
547;Spain;39,780616;-5,148423;Centre;S10;Azutan;Passage grave;Ly-4500;4590;90;n/a;n/a;n/a;n/a;n/a;Human bone;Chamber;TAQ;Müller 1998, 82;Bueno Ramírez 1991, 57;Müller 1998, 82,Bueno Ramírez 1991, 57;n/a
548;Spain;39,780616;-5,148423;Centre;S10;Azutan;Passage grave;Beta-145277;4620;40;n/a;n/a;n/a;n/a;n/a;n/a;Chamber;TAQ;García Sanjuán  et al. 2011, Tab. 2;n/a;García Sanjuán  et al. 2011, Tab. 2,;n/a
552;Spain;39,780616;-5,148423;Centre;S10;Azutan;Passage grave;UGRA-288;5060;90;n/a;n/a;n/a;n/a;n/a;Human bone;Chamber;TAQ;Müller 1998, 82;Bueno Ramirez 1991, 57.;Müller 1998, 82,Bueno Ramirez 1991, 57.;n/a
553;Spain;39,780616;-5,148423;Centre;S10;Azutan;Passage grave;Beta-157731;5250;40;n/a;n/a;n/a;n/a;n/a;Charcoal;Hut;n/a;n/a;n/a;n/a;n/a
555;Spain;39,780616;-5,148423;Centre;S10;Azutan;Passage grave;Ly-4578;5750;130;n/a;n/a;n/a;n/a;n/a;Human bone;Chamber;TAQ;Müller 1998, 82;Bueno Ramírez 1991, 113.;Müller 1998, 82,Bueno Ramírez 1991, 113.;n/a
390;Spain;39,905736;4,212298;East;S11;Biniai Nou 2;Hypogeum with megalithic entrance;UtC-8951;3200;35;n/a;n/a;n/a;n/a;n/a;Human bone;Chamber;TAQ;Micó Pérez 2005, 43;n/a;Micó Pérez 2005, 43,;n/a
395;Spain;39,905736;4,212298;East;S11;Biniai Nou 2;Hypogeum with megalithic entrance;UtC-9043;3290;40;n/a;n/a;n/a;n/a;n/a;Human bone;Under layer chamber;TAQ;Micó Pérez 2005, 42;n/a;Micó Pérez 2005, 42,;n/a
397;Spain;39,905736;4,212298;East;S11;Biniai Nou 2;Hypogeum with megalithic entrance;UtC-7847;3310;45;n/a;n/a;n/a;n/a;n/a;Human bone;Under layer chamber;TAQ;Micó Pérez 2005, 42;n/a;Micó Pérez 2005, 42,;n/a
408;Spain;39,905736;4,212298;East;S11;Biniai Nou 2;Hypogeum with megalithic entrance;KIA-11901;3605;30;n/a;n/a;n/a;n/a;n/a;Human bone;Under layer chamber;TAQ;Micó Pérez 2005, 41;n/a;Micó Pérez 2005, 41,;n/a
409;Spain;39,905736;4,212298;East;S11;Biniai Nou 2;Hypogeum with megalithic entrance;UtC-8950;3635;35;n/a;n/a;n/a;n/a;n/a;Human bone;Under layer chamber;TAQ;Micó Pérez 2005, 41;n/a;Micó Pérez 2005, 41,;n/a
410;Spain;39,905736;4,212298;East;S11;Biniai Nou 2;Hypogeum with megalithic entrance;KIA-11902;3660;25;n/a;n/a;n/a;n/a;n/a;Human bone;Under layer chamber;TAQ;Micó Pérez 2005, 40;n/a;Micó Pérez 2005, 40,;n/a
411;Spain;39,905736;4,212298;East;S11;Biniai Nou 2;Hypogeum with megalithic entrance;UtC-8949;3745;40;n/a;n/a;n/a;n/a;n/a;Human bone;Under layer chamber;TAQ;Micó Pérez 2005, 40;n/a;Micó Pérez 2005, 40,;n/a
287;Spain;41,534419;2,090636109;East;S12;Bòbila Madurell;Pit burial;UBAR-443;4560;80;-19,5;8,5;n/a;n/a;n/a;Human bone;Grave E - M7;TAQ;http://www.telearchaeology.com/c14/db.aspx, 14.01.2011;"Bordas et al. 1994; Fontanals-Coll et al. 2015";http://www.telearchaeology.com/c14/db.aspx, 14.01.2011,Bordas et al. 1994;n/a
288;Spain;41,534419;2,090636109;East;S12;Bòbila Madurell;Pit burial;UBAR-586;4810;70;n/a;n/a;n/a;n/a;n/a;Charcoal;BMS 78;n/a;n/a;n/a;IDEArq.org;Published as charcoal (Gibaja et al 2017 Radiocarbon) and Humane bone (Gibaja et al 2010 Complutum)
289;Spain;41,534419;2,090636109;East;S12;Bòbila Madurell;Pit burial;UBAR-445;4880;173;n/a;n/a;n/a;n/a;n/a;Human bone;7.7;TAQ;Marti et al. 1997, 15;Fontanals-Coll et al. 2015;Marti et al. 1997, 15,;n/a
295;Spain;41,534419;2,090636109;East;S12;Bòbila Madurell;Pit burial;UBAR-442;5310;90;-19,5;8,5;n/a;n/a;n/a;Human bone;Grave G17;TAQ;http://www.telearchaeology.com/c14/db.aspx, 14.01.2011;Marti et al. 1997, 15;http://www.telearchaeology.com/c14/db.aspx, 14.01.2011,Marti et al. 1997, 15;n/a
304;Spain;41,534419;2,090636109;East;S12;Bòbila Madurell;Pit burial;UBAR-401;5540;450;-20,5;9,1;n/a;n/a;n/a;Human bone;Grave G10;TAQ;http://www.telearchaeology.com/c14/db.aspx, 14.01.2011;Fontanals-Coll et al. 2015;http://www.telearchaeology.com/c14/db.aspx, 14.01.2011,;n/a
248;Spain;43,1756756;-3,4122779;North;S13;Boheriza 2;Dolmen;Ua-3229;5200;75;n/a;n/a;n/a;n/a;n/a;Charcoal;n/a;Indet.;Cabal et.al.2000, 131;de Blas 1999;Cabal et.al.2000, 131,de Blas 1999;n/a
249;Spain;43,1756756;-3,4122779;North;S13;Boheriza 2;Dolmen;Ua-3228;5500;100;n/a;n/a;n/a;n/a;n/a;Charcoal;n/a;Indet.;Cabal et.al.2000, 131;de Blas 1999;Cabal et.al.2000, 131,de Blas 1999;n/a
322;Spain;38,726533;1,445779;East;S14;Ca Na Costa;Dolmen;BM-1677;3270;80;n/a;n/a;n/a;n/a;n/a;Human bone;Chamber;n/a;IDEArq.org;n/a;IDEArq.org;n/a
323;Spain;38,726533;1,445779;East;S14;Ca Na Costa;Dolmen;KIA-14330;3535;40;n/a;n/a;n/a;n/a;n/a;Human bone;Chamber;TAQ;Micó Pérez 2005, 62;n/a;Micó Pérez 2005, 62,;n/a
324;Spain;38,726533;1,445779;East;S14;Ca Na Costa;Dolmen;KIA-14329;3595;35;n/a;n/a;n/a;n/a;n/a;Human bone;Chamber;TAQ;Micó Pérez 2005, 61;n/a;Micó Pérez 2005, 61,;n/a
23;Portugal;38,853741;-8,128225;Southwest;S15;Cabeceira 4;Megalithic grave;Wk-41086;4742;20;n/a;n/a;n/a;n/a;n/a;Human bone;Funerary deposit. Burial 1;n/a;Pardo-Gordó, Carvalho 2020;n/a;Pardo-Gordó, Carvalho 2020;n/a
24;Portugal;38,853741;-8,128225;Southwest;S15;Cabeceira 4;Passage grave;Wk-17084;4759;41;-19.2;n/a;n/a;n/a;n/a;Human bone;Chamber. Burial 2;TAQ;Boaventura 2009, Tab. 24;n/a;Boaventura 2009, Tab. 24,;n/a
25;Portugal;38,853741;-8,128225;Southwest;S15;Cabeceira 4;Passage grave;Beta-196094;4780;40;n/a;n/a;n/a;n/a;n/a;Human bone;Chamber. Burial 3;TAQ;Rocha 2005, 197;n/a;Rocha 2005, 197,;n/a
48;Portugal;39,1206;-9,1011;Southwest;S16;Cabeço de Arruda 1;Passage grave/tholos;Beta-132975;4240;50;n/a;n/a;n/a;n/a;n/a;Human bone;Funerary deposity. Hipogeum;n/a;Pardo-Gordó, Carvalho 2020;Umbelino, 2006;Pardo-Gordó, Carvalho 2020;n/a
52;Portugal;39,1206;-9,1011;Southwest;S16;Cabeço de Arruda 1;Passage grave/tholos;Beta-123363;4370;70;n/a;n/a;n/a;n/a;n/a;Human bone;Funerary deposity. Hipogeum;n/a;Pardo-Gordó, Carvalho 2020;Umbelino, 2006;Pardo-Gordó, Carvalho 2020;n/a
47;Portugal;39,1206;-9,0901;Southwest;S17;Cabeço de Arruda 2;Passage grave/tholos;UBAR-538;4230;100;n/a;n/a;n/a;n/a;n/a;Human bone;Chamber;TAQ;Silva 2002;n/a;Silva 2002,;n/a
54;Portugal;39,1206;-9,0901;Southwest;S17;Cabeço de Arruda 2;Passage grave/tholos;Sac-1784;4460;45;-13.69;n/a;n/a;n/a;n/a;Human bone;Chamber;TAQ;Boaventura 2009, Annex 3;n/a;Boaventura 2009, Annex 3,;n/a
57;Portugal;39,1206;-9,0901;Southwest;S17;Cabeço de Arruda 2;Passage grave/tholos;Sac-1613;4700;80;-19.39;n/a;n/a;n/a;n/a;Human bone;Chamber;TAQ;Silva 2002;n/a;Silva 2002,;n/a
2;Portugal;39,474002;-7,357586;West;S18;Cabeçuda;Passage grave;ICEN-977;3650;110;n/a;n/a;n/a;n/a;n/a;Charcoal;Basement chamber;Indet./TPQ?;Oliveira 1997;n/a;Oliveira 1997,;n/a
4;Portugal;39,474002;-7,357586;West;S18;Cabeçuda;Passage grave;ICEN-979;3720;45;n/a;n/a;n/a;n/a;n/a;Seeds;n/a;Indet.;García Sanjuán 2009, Tab.1;n/a;García Sanjuán 2009, Tab.1,;n/a
473;Portugal;41,02;-8,05;West;S19;Cabras;Passage grave;CSIC-1057;3850;60;n/a;n/a;n/a;n/a;n/a;Charcoal;Surface ancient soil;TAQ;Stockler 1998;n/a;Stockler 1998,;n/a
512;Portugal;41,02;-8,05;West;S19;Cabras;Passage grave;ICEN-1267;5220;60;n/a;n/a;n/a;n/a;n/a;Charcoal;Layer surface hearth;TPQ;Stockler 1998;n/a;Stockler 1998,;n/a
513;Portugal;41,02;-8,05;West;S19;Cabras;Passage grave;ICEN-1266;5220;60;n/a;n/a;n/a;n/a;n/a;Charcoal;Surface ancient soil;TPQ;Stockler 1998;n/a;Stockler 1998,;n/a
522;Portugal;41,02;-8,05;West;S19;Cabras;Passage grave;ICEN-1265;5290;50;n/a;n/a;n/a;n/a;n/a;Charcoal;Surface ancient soil;TPQ;Stockler 1998;n/a;Stockler 1998,;n/a
536;Portugal;41,02;-8,05;West;S19;Cabras;Passage grave;CSIC-1055;6160;70;n/a;n/a;n/a;n/a;n/a;Charcoal;Layer 3;TPQ;Cruz 1995;n/a;Cruz 1995,;n/a
59;Spain;36,44555556;-6,21;South;S20;Campo de Hockey;Pit burial;CNA-832;3065;35;n/a;n/a;n/a;n/a;n/a;Coal;Circular structure (pit) Trench C2-UE206;n/a;Vijande Vila et al, 2015;n/a;n/a;n/a
138;Spain;36,44555556;-6,21;South;S20;Campo de Hockey;Transitional structure to the megaliths;CNA-360;5020;50;n/a;n/a;n/a;n/a;n/a;Organic material, seeds and wood;Tomb 10;TAQ;García Sanjuán et al. 2011, 126, 129;n/a;"García Sanjuán et al. 2011, 126, 129; Vijande Vila et al 2015";n/a
143;Spain;36,44555556;-6,21;South;S20;Campo de Hockey;Transitional structure to the megaliths;CNA-835;5485;30;n/a;n/a;n/a;n/a;n/a;Shell (Monodonta lineata);Circular structure (pit) Corte 2-UE205;n/a;Vijande Vila et al, 2015;n/a;n/a;n/a
144;Spain;36,44555556;-6,21;South;S20;Campo de Hockey;Pit burial;CNA-664;5650;40;n/a;n/a;n/a;n/a;n/a;Human bone;Tomb 11;TAQ;García Sanjuán et al. 2011, 126, 129;Vijande Vila 2009, 273-274;"García Sanjuán et al. 2011, 126, 129,Vijande Vila 2009, 273-274; Vijande Vila et al 2015";n/a
146;Spain;36,44555556;-6,21;South;S20;Campo de Hockey;Cist;CNA-833;5665;60;n/a;n/a;n/a;n/a;n/a;Organic material, seeds and wood;;n/a;Vijande Vila et al 2015;n/a;n/a;n/a
269;Spain;41,530213;2,174752655;East;S21;Can Filuà;Pit burial;UBAR-555;3500;50;n/a;n/a;n/a;n/a;n/a;Human bone;Layer I;TAQ;http://www.telearchaeology.com/c14/db.aspx, 14.01.2011;n/a;http://www.telearchaeology.com/c14/db.aspx, 14.01.2011,;n/a
270;Spain;41,530213;2,174752655;East;S21;Can Filuà;Pit burial;UBAR-556;3500;50;n/a;n/a;n/a;n/a;n/a;Human bone;Layer II;TAQ;http://www.telearchaeology.com/c14/db.aspx, 14.01.2011;n/a;http://www.telearchaeology.com/c14/db.aspx, 14.01.2011,;n/a
250;Spain;41,540088;2,133572178;East;S22;Can Roqueta;Pit burial;UBAR-865;3040;40;n/a;n/a;n/a;n/a;2;Human bone;Multiple inhumation in pit CCRTR-191;TAQ/after use;http://www.telearchaeology.com/c14/db.aspx, 14.01.2011;Carlús et al. 2008;http://www.telearchaeology.com/c14/db.aspx, 14.01.2011,;Individual nº 3 level 2
259;Spain;41,540088;2,133572178;East;S22;Can Roqueta;Hypogeum;UBAR-671;3310;55;n/a;n/a;n/a;n/a;n/a;Human bone;Hypogeum CRI-222B-2;TAQ/after use?;http://www.telearchaeology.com/c14/db.aspx, 14.01.2011;Carlús et al. 2008;http://www.telearchaeology.com/c14/db.aspx, 14.01.2011,;Level 2 from ambit B (niche)
261;Spain;41,540088;2,133572178;East;S22;Can Roqueta;Pit burial;UBAR-800;3360;70;n/a;n/a;n/a;n/a;n/a;Human bone;Pit CRII-36;TAQ/after use;http://www.telearchaeology.com/c14/db.aspx, 14.01.2011;Carlús et al. 2008;http://www.telearchaeology.com/c14/db.aspx, 14.01.2011,;Pit with niche
262;Spain;41,540088;2,133572178;East;S22;Can Roqueta;Hypogeum;UBAR-864;3370;70;n/a;n/a;n/a;n/a;2;Human bone;Multiple inhumation in pit CCR TR-10;TAQ;http://www.telearchaeology.com/c14/db.aspx, 14.01.2011;Carlús et al. 2008;http://www.telearchaeology.com/c14/db.aspx, 14.01.2011,;Individual nº 3 level 2
263;Spain;41,540088;2,133572178;East;S22;Can Roqueta;Hypogeum;UBAR-670;3370;50;n/a;n/a;n/a;n/a;n/a;Human bone;Hypogeum CRII-70B2;TAQ;http://www.telearchaeology.com/c14/db.aspx, 14.01.2011;n/a;http://www.telearchaeology.com/c14/db.aspx, 14.01.2011,;Level 2 sedimentary fill
264;Spain;41,540088;2,133572178;East;S22;Can Roqueta;Pit burial;UBAR-673;3370;65;n/a;n/a;n/a;n/a;n/a;Charcoal;Multiple inhumation in pit CRII-634;TAQ;http://www.telearchaeology.com/c14/db.aspx, 14.01.2011;Carlús et al. 2008;http://www.telearchaeology.com/c14/db.aspx, 14.01.2011,;n/a
265;Spain;41,540088;2,133572178;East;S22;Can Roqueta;Hypogeum;UBAR-697;3465;60;n/a;n/a;n/a;n/a;n/a;Human bone;Hypogeum CRII-459A-3;TAQ;http://www.telearchaeology.com/c14/db.aspx, 14.01.2011;Carlús et al. 2008;http://www.telearchaeology.com/c14/db.aspx, 14.01.2011,;Level 3 from ambit A (pit)
271;Spain;41,540088;2,133572178;East;S22;Can Roqueta;Pit burial;UBAR-797;3500;45;n/a;n/a;n/a;n/a;n/a;Human bone;Multiple inhumation in pit CRII-481;TAQ;http://www.telearchaeology.com/c14/db.aspx, 14.01.2011;Carlús et al. 2008;http://www.telearchaeology.com/c14/db.aspx, 14.01.2011,;Structure re-expansion
272;Spain;41,540088;2,133572178;East;S22;Can Roqueta;Pit burial;UBAR-863;3530;40;n/a;n/a;n/a;n/a;2;Human bone;Hypogeum CRTR-151;TAQ;http://www.telearchaeology.com/c14/db.aspx, 14.01.2011;Carlús et al. 2008;http://www.telearchaeology.com/c14/db.aspx, 14.01.2011,;Individual nº 3 level 1
274;Spain;41,540088;2,133572178;East;S22;Can Roqueta;Pit burial;UBAR-698;3590;90;n/a;n/a;n/a;n/a;n/a;Human bone;Pit CRII-463A-3;TAQ;http://www.telearchaeology.com/c14/db.aspx, 14.01.2011;Carlús et al. 2008;http://www.telearchaeology.com/c14/db.aspx, 14.01.2011,;Burial in grave with niche
280;Spain;41,345397;1,912241626;East;S23;Can Sadurni;Cave;I-12717;4080;100;n/a;n/a;n/a;n/a;n/a;Charcoal;Structure 2 layer 9;n/a;http://www.idearqueologia.org/c14/?ln=es#fila-tabla;Edo et al. 2011;http://www.idearqueologia.org/c14/?ln=es#fila-tabla;n/a
282;Spain;41,345397;1,912241626;East;S23;Can Sadurni;Cave;I-13315;4130;110;n/a;n/a;n/a;n/a;n/a;Charcoal;Layer C9;Indet./TAQ?;http://www.telearchaeology.com/c14/db.aspx, 14.01.2011;Edo et al. 2011;http://www.telearchaeology.com/c14/db.aspx, 14.01.2011,;n/a
283;Spain;41,345397;1,912241626;East;S23;Can Sadurni;Cave;I-13313;4160;160;n/a;n/a;n/a;n/a;n/a;Charcoal;Structure 2 layer 9;n/a;IDEArq.org;Edo et al. 2011;n/a;n/a
284;Spain;41,345397;1,912241626;East;S23;Can Sadurni;Cave;I-11533;4225;90;n/a;n/a;n/a;n/a;n/a;Human bone;Inhumation layer 9;TAQ;http://www.telearchaeology.com/c14/db.aspx, 14.01.2011;Edo et al. 2011;http://www.telearchaeology.com/c14/db.aspx, 14.01.2011,;n/a
285;Spain;41,345397;1,912241626;East;S23;Can Sadurni;Cave;UBAR-1074;4425;50;n/a;n/a;n/a;n/a;n/a;Charcoal;Structure 7 layer 9b;n/a;IDEArq.org;Edo et al. 2011;n/a;n/a
290;Spain;41,345397;1,912241626;East;S23;Can Sadurni;Cave;UBAR-1281;5075;40;n/a;n/a;n/a;n/a;n/a;Charcoal;Structure XI - Square H10 - Ig - Layer 10b;n/a;IDEArq.org;"Edo et al. 2017; Antolín et al. 2017";n/a;n/a
291;Spain;41,345397;1,912241626;East;S23;Can Sadurni;Cave;UBAR-1352;5260;50;n/a;n/a;n/a;n/a;n/a;Charcoal;Square D7 - Iig - Layer 11a4;n/a;IDEArq.org;Antolín et al. 2017;n/a;n/a
292;Spain;41,345397;1,912241626;East;S23;Can Sadurni;Cave;UBAR-1282;5260;40;n/a;n/a;n/a;n/a;n/a;Human bone;Squares D10/H11/I11 - Ig/Ih - Layer 10b;n/a;IDEArq.org;"Edo et al. 2017; Antolín et al. 2017";n/a;n/a
294;Spain;41,345397;1,912241626;East;S23;Can Sadurni;Cave;Beta-197134;5290;40;n/a;n/a;n/a;n/a;n/a;Human bone;Square H9 - IId - Layer 11a1;n/a;IDEArq.org;"Edo et al. 2011; Antolín et al. 2017";n/a;n/a
296;Spain;41,345397;1,912241626;East;S23;Can Sadurni;Cave;Beta-210652;5340;40;n/a;n/a;n/a;n/a;n/a;Human bone;Square H9 - Ig - Layer 10b;n/a;IDEArq.org;"Edo et al. 2011; Antolín et al. 2017";n/a;n/a
298;Spain;41,345397;1,912241626;East;S23;Can Sadurni;Cave;I-17918;5350;150;n/a;n/a;n/a;n/a;n/a;Charcoal;Layer 11;n/a;IDEArq.org;Edo et al. 2011;n/a;n/a
299;Spain;41,345397;1,912241626;East;S23;Can Sadurni;Cave;UBAR-1193;5370;45;n/a;n/a;n/a;n/a;n/a;Charcoal;Structure X -D7 -IIe - Layer 11a2;n/a;IDEArq.org;"Eido et al. 2017; Antolín et al. 2017";n/a;n/a
300;Spain;41,345397;1,912241626;East;S23;Can Sadurni;Cave;Beta-363819;5460;40;n/a;n/a;n/a;n/a;n/a;Human bone;Burial 1 - IIf - 11a3;n/a;IDEArq.org;"Eido et al. 2017; Antolín et al. 2017";n/a;n/a
301;Spain;41,345397;1,912241626;East;S23;Can Sadurni;Cave;I-13314;5470;110;n/a;n/a;n/a;n/a;n/a;Charcoal;Square G7 - IIe - Layer 11;n/a;IDEArq.org;Edo et al. 1986;n/a;n/a
302;Spain;41,345397;1,912241626;East;S23;Can Sadurni;Cave;UBAR-766;5470;140;n/a;n/a;n/a;n/a;n/a;Charcoal;Layer 11;n/a;IDEArq.org;Edo et al. 2011;n/a;n/a
303;Spain;41,345397;1,912241626;East;S23;Can Sadurni;Cave;OxA-29640;5487;33;n/a;n/a;n/a;n/a;n/a;Human bone;Burial 2 - IIf - Layer 11a3;n/a;IDEArq.org;"Eido et al. 2017; Antolín et al. 2017";n/a;n/a
305;Spain;41,345397;1,912241626;East;S23;Can Sadurni;Cave;UBAR-1310;5560;60;n/a;n/a;n/a;n/a;n/a;Charcoal;Structure XIII - Square E7 - IIf - Layer 11a4;n/a;IDEArq.org;"Eido et al. 2017; Antolín et al. 2017";n/a;n/a
306;Spain;41,345397;1,912241626;East;S23;Can Sadurni;Cave;OxA-29641;5568;34;n/a;n/a;n/a;n/a;n/a;Human bone;Burial 4 - IIf - Layer 11a3;n/a;IDEArq.org;"Eido et al. 2017; Antolín et al. 2017";n/a;n/a
307;Spain;41,345397;1,912241626;East;S23;Can Sadurni;Cave;Beta-238657;5570;40;n/a;n/a;n/a;n/a;n/a;Charcoal;Layer 11;n/a;IDEArq.org;Edo et al. 2011;n/a;n/a
310;Spain;41,345397;1,912241626;East;S23;Can Sadurni;Cave;UBAR-846;5635;45;n/a;n/a;n/a;n/a;n/a;Ericaceae - Arbutus;Layer 11b;n/a;http://www.idearqueologia.org/c14/?ln=es#fila-tabla;Edo et al. 2011;n/a;n/a
312;Spain;41,345397;1,912241626;East;S23;Can Sadurni;Cave;I-11789;5700;110;n/a;n/a;n/a;n/a;n/a;Charcoal;Layer 11b;n/a;http://www.idearqueologia.org/c14/?ln=es#fila-tabla;Edo et al. 2011;http://www.idearqueologia.org/c14/?ln=es#fila-tabla;n/a
313;Spain;41,345397;1,912241626;East;S23;Can Sadurni;Cave;Beta-394625;5730;30;n/a;n/a;n/a;n/a;n/a;Charcoal;Square F7 - IIg - Layer 11a5;n/a;http://www.idearqueologia.org/c14/?ln=es#fila-tabla;"Eido et al. 2017; Antolín et al. 2017";http://www.idearqueologia.org/c14/?ln=es#fila-tabla;n/a
316;Spain;41,345397;1,912241626;East;S23;Can Sadurni;Cave;Beta-210653;5790;40;n/a;n/a;n/a;n/a;n/a;Charcoal;Layer 11b;n/a;http://www.idearqueologia.org/c14/?ln=es#fila-tabla;Edo et al. 2011;n/a;n/a
317;Spain;41,345397;1,912241626;East;S23;Can Sadurni;Cave;I-11787;5800;160;n/a;n/a;n/a;n/a;n/a;Charcoal;Layer 11b;n/a;http://www.idearqueologia.org/c14/?ln=es#fila-tabla;Edo et al. 2011;n/a;n/a
192;Portugal;40,766733;-7,470468;West;S24;Carapito 1;Passage grave;Hv-1783;4590;65;n/a;n/a;n/a;n/a;n/a;Charcoal;Ash bag between the stones that form the chamber;n/a;"Kunst 1992; Leisner, Ribeiro, 1968";Bueno Ramírez et al, 2007;n/a;n/a
196;Portugal;40,766733;-7,470468;West;S24;Carapito 1;Passage grave;GrN-5110;4850;40;n/a;n/a;n/a;n/a;n/a;Charcoal;Hearth on the chamber floor;TPQ;Senna-Martinez/Ventura 2008, 324;n/a;Senna-Martinez/Ventura 2008, 324,;n/a
199;Portugal;40,766733;-7,470468;West;S24;Carapito 1;Passage grave;TO-3336;5120;40;n/a;n/a;n/a;n/a;n/a;Charcoal;Hearth on the chamber floor, same sample like GrN-5110;TPQ;Senna-Martinez/Ventura 2008, 324;Criado Borado/Fabegras Valcarce 1989, 685;Senna-Martinez/Ventura 2008, 324,Criado Borado/Fabegras Valcarce 1989, 685.;n/a
200;Portugal;40,766733;-7,470468;West;S24;Carapito 1;Passage grave;OxA-3733;5125;70;n/a;n/a;n/a;n/a;n/a;Charcoal;Pit from the orthostats;TPQ;Senna-Martinez/Ventura 2008,333;n/a;Senna-Martinez/Ventura 2008,333,;n/a
363;Portugal;38,887403;-9,21787;Southwest;S25;Carcavelos;Megalithic grave;Beta-225170;4130;40;-19,92;8,14;1;2;n/a;Human bone;Chamber;TAQ;Boaventura 2009, Tab.22;n/a;Boaventura 2009, Tab.22,;n/a
367;Portugal;38,887403;-9,21787;Southwest;S25;Carcavelos;Megalithic grave;Beta-208518;4270;40;-20.20;n/a;n/a;n/a;n/a;Human bone;Chamber;TAQ;Boaventura 2009, Tab.22;n/a;Boaventura 2009, Tab.22,;n/a
277;Spain;41,497786;2,12692775;East;S26;Carrer de Paris;Hypogeum/paradolmen;UBAR-860;3870;45;n/a;n/a;n/a;n/a;n/a;Human bone;UE-1;TAQ;http://www.telearchaeology.com/c14/db.aspx, 14.01.2011;Francés i Farré et al. 2004;http://www.telearchaeology.com/c14/db.aspx, 14.01.2011,;n/a
281;Spain;41,497786;2,12692775;East;S26;Carrer de Paris;Hypogeum/paradolmen;UBAR-817;4110;60;n/a;n/a;n/a;n/a;n/a;Charcoal;UE-15;Indet.;http://www.telearchaeology.com/c14/db.aspx, 14.01.2011;Francés i Farré et al. 2004;http://www.telearchaeology.com/c14/db.aspx, 14.01.2011,;n/a
368;Portugal;38,888361;-9,078764;Southwest;S27;Casal do Penedo;Megalithic grave;Beta-234134;4280;40;-19,89;7,19;1;0;n/a;Human bone;Chamber;TAQ;Boaventura 2009, Tab.22;n/a;"Boaventura 2009, Tab.22; Carvalho, Petchey 2013";n/a
369;Portugal;38,888361;-9,078764;Southwest;S27;Casal do Penedo;Megalithic grave;Beta-229585;4280;40;-20,02;8,17;0;2;n/a;Human bone;Chamber;TAQ;Boaventura 2009, Tab.22;n/a;"Boaventura 2009, Tab.22; Carvalho, Petchey 2013";n/a
32;Portugal;37,18447;-8,55077;Southwest;S28;Castelo Belinho;Open air site;Wk-28634;5267;34;-18,9;9,2;11;13;n/a;Human bone;Funerary deposit. Structure 1;n/a;Carvalho, Petchey 2013, Tab 1;Carvalho, Petchey 2013, Tab 1;Carvalho, Petchey 2013, Tab 1;n/a
33;Portugal;37,18447;-8,55077;Southwest;S28;Castelo Belinho;Open air site;Wk-28001;5436;32;9,5;-19,23;8;17;n/a;Human bone;Funerary deposit. Structure 59;n/a;Gomes 2010;n/a;Gomes 2010;n/a
34;Portugal;37,18447;-8,55077;Southwest;S28;Castelo Belinho;Pit burial;Beta-199912;5500;40;-18,8;n/a;12;n/a;n/a;Human bone;Pit burial in settlement;TAQ;Gomes 2008;n/a;"Gomes 2008; Carvalho, Petchey 2013, Tab 1";n/a
35;Portugal;37,18447;-8,55077;Southwest;S28;Castelo Belinho;Open air site;Wk-28002;5536;32;-18,02;10,86;20;32;n/a;Human bone;Funerary deposit. Structure 59;n/a;Gomes 2010;n/a;Gomes 2010;n/a
38;Portugal;37,18447;-8,55077;Southwest;S28;Castelo Belinho;Pit burial ;Beta-199913;5720;40;n/a;n/a;n/a;n/a;n/a;Human bone;Pit burial in settlement;TAQ;Gomes 2008;n/a;"Gomes 2008; Carvalho, Petchey 2013, Tab 1";n/a
39;Portugal;37,18447;-8,55077;Southwest;S28;Castelo Belinho;Open air site;Sac-2031;5790;70;n/a;n/a;n/a;n/a;n/a;Human bone;Funerary deposit. Structure 1;n/a;Gomes 2008;n/a;"Gomes 2008; Carvalho, Petchey 2013, Tab 1";n/a
356;Spain;42,93954;-8,39583;Northwest;S29;Catasol 2;Megalithic grave/tumulus;CSIC-984;5470;35;n/a;n/a;n/a;n/a;n/a;Charcoal;Surface ancient soil,chamber not excavated;TPQ;Fábregas Válcarce/Vilaseco Vázquez 2003, 293-294;Filgueiras Rey 1992;Fábregas Válcarce/Vilaseco Vázquez 2003, 293-294,Filgueiras Rey 1992;n/a
358;Spain;42,93954;-8,39583;Northwest;S29;Catasol 2;Megalithic grave/tumulus;CSIC-985;5680;35;n/a;n/a;n/a;n/a;n/a;Charcoal;From the tumulus, chamber not excavated;TPQ;Fábregas Válcarce/Vilaseco Vázquez 2003, 293-294;Alonso/Bello 1997;Fábregas Válcarce/Vilaseco Vázquez 2003, 293-294,Alonso/Bello 1997;n/a
140;Spain;37,26777778;-1,795833333;South;S30;Cerro Virtud;Collective grave in ditch, domestic context;Beta-110875;5300;120;n/a;n/a;n/a;n/a;n/a;Charcoal;n/a;n/a;http://www.idearqueologia.org/c14/?ln=es#fila-tabla;n/a;n/a;n/a
145;Spain;37,26777778;-1,795833333;South;S30;Cerro Virtud;Collective grave in ditch, domestic context;Beta-90884;5660;80;n/a;n/a;n/a;n/a;n/a;Human bone;Burials;TAQ;García Sanjuán  et al. 2011, Tab. 2;n/a;García Sanjuán  et al. 2011, Tab. 2,;Charcoal according http://www.idearqueologia.org/c14/?ln=es#fila-tabla 
147;Spain;37,26777778;-1,795833333;South;S30;Cerro Virtud;Collective grave in ditch, domestic context;OxA-6713;5765;55;-17,7;n/a;n/a;n/a;n/a;Human bone;Burials;TAQ;García Sanjuán  et al. 2011, Tab. 2;n/a;García Sanjuán  et al. 2011, Tab. 2,;n/a
148;Spain;37,26777778;-1,795833333;South;S30;Cerro Virtud;Collective grave in ditch, domestic context;Beta-118936;5830;30;-20,8;n/a;n/a;n/a;n/a;Organic material, seeds and wood;n/a;n/a;http://www.idearqueologia.org/c14/?ln=es#fila-tabla;n/a;n/a;n/a
149;Spain;37,26777778;-1,795833333;South;S30;Cerro Virtud;Collective grave in ditch, domestic context;OxA-6580;5850;80;-19,6;n/a;n/a;n/a;n/a;Human bone;Burials;TAQ;García Sanjuán  et al. 2011, Tab. 2;n/a;García Sanjuán  et al. 2011, Tab. 2,;n/a
150;Spain;37,26777778;-1,795833333;South;S30;Cerro Virtud;Collective grave in ditch, domestic context;Beta-101425;5860;70;n/a;n/a;n/a;n/a;n/a;Human bone;Burials;TAQ;García Sanjuán  et al. 2011, Tab. 2;n/a;"García Sanjuán  et al. 2011, Tab. 2; Ruiz Taboada and Montero Ruiz 1999";Charcoal according http://www.idearqueologia.org/c14/?ln=es#fila-tabla 
152;Spain;37,26777778;-1,795833333;South;S30;Cerro Virtud;Collective grave in ditch, domestic context;OxA-6715;5895;55;-23,1;n/a;n/a;n/a;n/a;Human bone;Burials;TAQ;"García Sanjuán  et al. 2011, Tab. 2; Bronk Ramsey et al 2002";n/a;"García Sanjuán  et al. 2011, Tab. 2; Ruiz Taboada and Montero Ruiz 1999";Charcoal according http://www.idearqueologia.org/c14/?ln=es#fila-tabla 
154;Spain;37,26777778;-1,795833333;South;S30;Cerro Virtud;Collective grave in ditch, domestic context;Beta-90885;5920;70;n/a;n/a;n/a;n/a;n/a;Human bone;Burials;TAQ;García Sanjuán  et al. 2011, Tab. 2;n/a;Ruiz Taboada and Montero Ruiz 1999;Charcoal according http://www.idearqueologia.org/c14/?ln=es#fila-tabla 
155;Spain;37,26777778;-1,795833333;South;S30;Cerro Virtud;Collective grave in ditch, domestic context;OxA-6714;6030;55;-18,8;n/a;n/a;n/a;n/a;Human bone;B3 Phase 2;n/a;Bronk Ramsey et al 2002;Ruiz Taboada and Montero Ruiz 1999;n/a;n/a
157;Spain;37,26777778;-1,795833333;South;S30;Cerro Virtud;Collective grave in ditch, domestic context;Beta-101424;6160;180;n/a;n/a;n/a;n/a;n/a;Charcoal;B3 Phase 1;n/a;http://www.idearqueologia.org/c14/?ln=es#fila-tabla;Ruiz Taboada and Montero Ruiz 1999;n/a;n/a
475;Portugal;41,203071;-8,009011;West;S31;Chã da Parada 1;Passage grave;Gif-7672;3940;80;n/a;n/a;n/a;n/a;n/a;Charcoal;Ancient soil;TAQ/after use;Cassen 1993, 515.;n/a;Cassen 1993, 515.,;n/a
479;Portugal;41,203071;-8,009011;West;S31;Chã da Parada 1;Passage grave;ICEN-409;4130;45;n/a;n/a;n/a;n/a;n/a;Charcoal;Basement layer 4 pheriphery monument;TAQ;Boaventura 2009, annex 3;Cruz 1995;Boaventura 2009, annex 3,Cruz 1995;n/a
481;Portugal;41,203071;-8,009011;West;S31;Chã da Parada 1;Passage grave;ICEN-408;4180;110;n/a;n/a;n/a;n/a;n/a;Charcoal;Basement layer 5, mixed layer with ancient soil;Indet./TPQ?;Boaventura 2009, annex 3;Cruz 1995;Boaventura 2009, annex 3,Cruz 1995;n/a
486;Portugal;41,203071;-8,009011;West;S31;Chã da Parada 1;Passage grave;Gif-7873;4610;45;n/a;n/a;n/a;n/a;n/a;Charcoal;Surface ancient soil;TPQ;Boaventura 2009, annex 3;Cruz 1995;Boaventura 2009, annex 3,Cruz 1995;n/a
487;Portugal;41,203071;-8,009011;West;S31;Chã da Parada 1;Passage grave;ICEN-173;4610;45;n/a;n/a;n/a;n/a;n/a;Charcoal;Ancient soil;Indet./TPQ?;Boaventura, annex 3;Cassen 1993, 515.;Boaventura, annex 3,Cassen 1993, 515.;n/a
491;Portugal;41,203071;-8,009011;West;S31;Chã da Parada 1;Passage grave;CSIC-954;4820;40;n/a;n/a;n/a;n/a;n/a;Charcoal;Surface ancient soil;TPQ;Boaventura 2009, annex 3;Cruz 1995;Boaventura 2009, annex 3,Cruz 1995;n/a
492;Portugal;41,203071;-8,009011;West;S31;Chã da Parada 1;Passage grave;ICEN-407;4880;50;n/a;n/a;n/a;n/a;n/a;Charcoal;Surface ancient soil;TPQ;Boaventura 2009, annex 3;Cruz 1995;Boaventura 2009, annex 3,Cruz 1995;n/a
493;Portugal;41,203071;-8,009011;West;S31;Chã da Parada 1;Passage grave;ICEN-172;4900;260;n/a;n/a;n/a;n/a;n/a;Charcoal;Ancient soil;TPQ;Cassen 1993, 515.;n/a;Cassen 1993, 515.,;n/a
495;Portugal;41,203071;-8,009011;West;S31;Chã da Parada 1;Passage grave;CSIC-953;4920;40;n/a;n/a;n/a;n/a;n/a;Charcoal;Surface ancient soil;TPQ;Boaventura 2009, annex 3;Cruz 1995;Boaventura 2009, annex 3,Cruz 1995;n/a
496;Portugal;41,203071;-8,009011;West;S31;Chã da Parada 1;Passage grave;ICEN-780;4930;50;n/a;n/a;n/a;n/a;n/a;Charcoal;Surface ancient soil;TPQ;Boaventura 2009, annex 3;Cruz 1995;Boaventura 2009, annex 3,Cruz 1995;n/a
500;Portugal;41,203071;-8,009011;West;S31;Chã da Parada 1;Passage grave;ICEN-781;4980;50;n/a;n/a;n/a;n/a;n/a;Charcoal;Surface ancient soil;TPQ;Boaventura 2009, annex 3;Cruz 1995;Boaventura 2009, annex 3,Cruz 1995;n/a
503;Portugal;41,203071;-8,009011;West;S31;Chã da Parada 1;Passage grave;CSIC-979;5010;35;n/a;n/a;n/a;n/a;n/a;Charcoal;Basement tumulus;TPQ;Boaventura 2009, annex 3;Cruz 1995;Boaventura 2009, annex 3,Cruz 1995;n/a
494;Portugal;41,201359;-8,007941;West;S32;Chã da Parada 4;Passage grave;ICEN-823;4910;50;n/a;n/a;n/a;n/a;n/a;Charcoal;Basement tumulus;TPQ;Boaventura 2009, annex 3;Cruz 1995;Boaventura 2009, annex 3,Cruz 1995;n/a
499;Portugal;41,201359;-8,007941;West;S32;Chã da Parada 4;Passage grave;CSIC-822;4970;50;n/a;n/a;n/a;n/a;n/a;Charcoal;Basement tumulus;TPQ;Boaventura 2009, annex 3;Cruz 1995;Boaventura 2009, annex 3,Cruz 1995;n/a
506;Portugal;41,201359;-8,007941;West;S32;Chã da Parada 4;Passage grave;GrN-17433;5055;40;n/a;n/a;n/a;n/a;n/a;Charcoal;Basement tumulus;TPQ;Boaventura 2009, annex 3;Cruz 1995;Boaventura 2009, annex 3,Cruz 1995;n/a
515;Portugal;41,201359;-8,007941;West;S32;Chã da Parada 4;Passage grave;ICEN-890;5240;90;n/a;n/a;n/a;n/a;n/a;Charcoal;Basement tumulus;TPQ;Boaventura 2009, annex 3;Cruz 1995;Boaventura 2009, annex 3,Cruz 1995;n/a
516;Portugal;41,201359;-8,007941;West;S32;Chã da Parada 4;Passage grave;ICEN-891;5240;70;n/a;n/a;n/a;n/a;n/a;Charcoal;Surface ancient soil;TPQ;Boaventura 2009, annex 3;Cruz 1995;Boaventura 2009, annex 3,Cruz 1995;n/a
524;Portugal;41,201359;-8,007941;West;S32;Chã da Parada 4;Passage grave;ICEN-169;5420;40;n/a;n/a;n/a;n/a;n/a;Charcoal;Layer 2 basement tumulus;TPQ;Boaventura 2009, annex 3;Cruz 1995;Boaventura 2009, annex 3,Cruz 1995;n/a
526;Portugal;41,201359;-8,007941;West;S32;Chã da Parada 4;Passage grave;ICEN-162;5470;45;n/a;n/a;n/a;n/a;n/a;Charcoal;Layer 1, basement tumulus;TPQ;Boaventura 2009, annex 3;Cruz 1995;Boaventura 2009, annex 3,Cruz 1995;n/a
528;Portugal;41,201359;-8,007941;West;S32;Chã da Parada 4;Passage grave;ICEN-170;5530;300;n/a;n/a;n/a;n/a;n/a;Charcoal;n/a;TPQ;Boaventura 2009, annex 3;Cruz 1995;Boaventura 2009, annex 3,Cruz 1995;n/a
534;Portugal;41,14748;-8,083089;West;S33;Chã de Carvahal 1;Passage grave;UGRA-355;5860;60;n/a;n/a;n/a;n/a;n/a;Charcoal;Ancient soil;TPQ;Boaventura 2009, annex 3;Cruz 1995;Boaventura 2009, annex 3,Cruz 1995;n/a
535;Portugal;41,14748;-8,083089;West;S33;Chã de Carvahal 1;Passage grave;OxA-1848;6150;80;n/a;n/a;n/a;n/a;n/a;Charcoal;Ancient soil;TPQ;Boaventura 2009, annex 3;Cruz 1995;Boaventura 2009, annex 3,Cruz 1995;n/a
525;Portugal;41,14748;-8,083089;West;S33;Chã de Carvahal 1;Passage grave;OxA-1849;5450;80;n/a;n/a;n/a;n/a;n/a;Charcoal;Surface ancient soil;TPQ;Boaventura 2009, annex 3;Cruz 1995;Boaventura 2009, annex 3,Cruz 1995;n/a
497;Portugal;41,177547;-8,068765;West;S34;Chã de Santinhos 2;Passage grave;Gif-6785;4930;50;n/a;n/a;n/a;n/a;n/a;Charcoal;Basement monument;TPQ;Boaventura 2009, annex 3;Cruz 1995;Boaventura 2009, annex 3,Cruz 1995;n/a
501;Portugal;41,177547;-8,068765;West;S34;Chã de Santinhos 2;Passage grave;Gif-6784;4990;50;n/a;n/a;n/a;n/a;n/a;Charcoal;Basement monument;TPQ;Boaventura 2009, annex 3;Cruz 1995;Boaventura 2009, annex 3,Cruz 1995;n/a
353;Spain;42,37536;-8,64661;Northwest;S35;Chan da Cruz 1;Megalithic grave/tumulus;CSIC-642;5210;50;n/a;n/a;n/a;n/a;n/a;Charcoal;n/a;TPQ;Boaventura 2009, Tab. 31;n/a;Boaventura 2009, Tab. 31,;n/a
359;Spain;42,37536;-8,64661;Northwest;S35;Chan da Cruz 1;Megalithic grave/tumulus;GaK-11395;5890;120;n/a;n/a;n/a;n/a;n/a;Charcoal;Hearth ancient soil;TPQ;Fábregas Válcarce/Vilaseco Vázquez 2003, 293-294;Fábregas Válcarce 1988;Fábregas Válcarce/Vilaseco Vázquez 2003, 293-294,Fábregas Válcarce 1988;n/a
416;Spain;42,306404;-2,447693;North;S36;Collado del Mallo;Megalithic grave;Beta-89990;3840;70;n/a;n/a;n/a;n/a;n/a;Human bone;Entrance chamber;TAQ;Boaventura 2009, annex 33;Lopez de Calle/Llarraza 1997;Boaventura 2009, annex 33,Lopez de Calle/Llarraza 1997;n/a
417;Spain;42,306404;-2,447693;North;S36;Collado del Mallo;Megalithic grave;Beta-89990;3840;70;n/a;n/a;n/a;n/a;n/a;Human bone;Entrance chamber;TAQ;Boaventura 2009, annex 33;Lopez de Calle/Llarraza 1997;Boaventura 2009, annex 33,Lopez de Calle/Llarraza 1997;n/a
418;Spain;42,306404;-2,447693;North;S36;Collado del Mallo;Megalithic grave;Beta-89988;3860;70;n/a;n/a;n/a;n/a;n/a;Human bone;Chamber;n/a;http://www.idearqueologia.org/c14/?ln=es#fila-tabla;n/a;n/a;n/a
419;Spain;42,306404;-2,447693;North;S36;Collado del Mallo;Megalithic grave;Beta-89988;3860;70;n/a;n/a;n/a;n/a;n/a;Human bone;Chamber;n/a;http://www.idearqueologia.org/c14/?ln=es#fila-tabla;n/a;n/a;n/a
420;Spain;42,306404;-2,447693;North;S36;Collado del Mallo;Megalithic grave;Beta-89991;3950;80;n/a;n/a;n/a;n/a;n/a;Human bone;Layer B corridor;n/a;http://www.idearqueologia.org/c14/?ln=es#fila-tabla;n/a;n/a;n/a
421;Spain;42,306404;-2,447693;North;S36;Collado del Mallo;Megalithic grave;Beta-89991;3950;80;n/a;n/a;n/a;n/a;n/a;Human bone;Layer B corridor;n/a;http://www.idearqueologia.org/c14/?ln=es#fila-tabla;n/a;n/a;n/a
422;Spain;42,306404;-2,447693;North;S36;Collado del Mallo;Megalithic grave;Beta-89989;4000;70;n/a;n/a;n/a;n/a;n/a;Human bone;Entrance chamber;TAQ;Boaventura 2009, annex 33;Lopez de Calle/Llarraza 1997;Boaventura 2009, annex 33,Lopez de Calle/Llarraza 1997;n/a
423;Spain;42,306404;-2,447693;North;S36;Collado del Mallo;Megalithic grave;Beta-89989;4000;70;n/a;n/a;n/a;n/a;n/a;Human bone;Entrance chamber;TAQ;Boaventura 2009, annex 33;Lopez de Calle/Llarraza 1997;Boaventura 2009, annex 33,Lopez de Calle/Llarraza 1997;n/a
426;Spain;42,306404;-2,447693;North;S36;Collado del Mallo;Megalithic grave;Beta-89987;4430;70;n/a;n/a;n/a;n/a;n/a;Human bone;Layer C corridor;n/a;http://www.idearqueologia.org/c14/?ln=es#fila-tabla;n/a;n/a;n/a
427;Spain;42,306404;-2,447693;North;S36;Collado del Mallo;Megalithic grave;Beta-89987;4430;70;n/a;n/a;n/a;n/a;n/a;Human bone;Layer C corridor;n/a;http://www.idearqueologia.org/c14/?ln=es#fila-tabla;n/a;n/a;n/a
436;Spain;42,306404;-2,447693;North;S36;Collado del Mallo;Megalithic grave;Beta-89986;4700;90;n/a;n/a;n/a;n/a;n/a;Human bone;Layer C corridor;TAQ;Boaventura 2009, annex 33;Lopez de Calle/Llarraza 1997;Boaventura 2009, annex 33,Lopez de Calle/Llarraza 1997;n/a
437;Spain;42,306404;-2,447693;North;S36;Collado del Mallo;Megalithic grave;Beta-89986;4700;90;n/a;n/a;n/a;n/a;n/a;Human bone;Layer C corridor;TAQ;Boaventura 2009, annex 33;Lopez de Calle/Llarraza 1997;Boaventura 2009, annex 33,Lopez de Calle/Llarraza 1997;n/a
414;Spain;42,26916667;-2,523888889;North;S37;Collado Palomero 1;Megalithic grave;CSIC-970;3680;20;n/a;n/a;n/a;n/a;n/a;Human bone;Layer A1;n/a;http://www.idearqueologia.org/c14/?ln=es#fila-tabla;n/a;n/a;n/a
424;Spain;42,26916667;-2,523888889;North;S37;Collado Palomero 1;Megalithic grave;CSIC-1065;4270;60;n/a;n/a;n/a;n/a;n/a;Human bone;Layer B2;TAQ;Boaventura 2009, annex 33;Lopez de Calle/Llarraza 1997;Boaventura 2009, annex 33,Lopez de Calle/Llarraza 1997;n/a
439;Spain;42,26916667;-2,523888889;North;S37;Collado Palomero 1;Megalithic grave;CSIC-952;4730;30;n/a;n/a;n/a;n/a;n/a;Charcoal;Layer B1;TAQ;Boaventura 2009, annex 33;Lopez de Calle/Llarraza 1997;Boaventura 2009, annex 33,Lopez de Calle/Llarraza 1997;n/a
415;Spain;42,26916667;-2,523888889;North;S37;Collado Palomero 1;Megalithic grave;CSIC-970;3680;20;n/a;n/a;n/a;n/a;n/a;Human bone;Layer A1;n/a;http://www.idearqueologia.org/c14/?ln=es#fila-tabla;n/a;n/a;n/a
425;Spain;42,26916667;-2,523888889;North;S37;Collado Palomero 1;Megalithic grave;CSIC-1065;4270;60;n/a;n/a;n/a;n/a;n/a;Human bone;Layer B2;TAQ;Boaventura 2009, annex 33;Lopez de Calle/Llarraza 1997;Boaventura 2009, annex 33,Lopez de Calle/Llarraza 1997;n/a
440;Spain;42,26916667;-2,523888889;North;S37;Collado Palomero 1;Megalithic grave;CSIC-952;4730;30;n/a;n/a;n/a;n/a;n/a;Charcoal;Layer B1;TAQ;Boaventura 2009, annex 33;Lopez de Calle/Llarraza 1997;Boaventura 2009, annex 33,Lopez de Calle/Llarraza 1997;n/a
77;Spain;36,98444444;-4,415;South;S38;Cortiijo de El Tardón;Cist;UGRA-260;3530;60;n/a;n/a;n/a;n/a;n/a;n/a;n/a;Indet.;García Sanjuán 2006, 153;Fernández Ruiz et al., 1997;García Sanjuán 2006, 153,Fernández Ruiz et al., 1997;Coord. Aprox.
94;Spain;36,98444444;-4,415;South;S38;Cortiijo de El Tardón;Cist;GrN-16066;3745;25;n/a;n/a;n/a;n/a;n/a;n/a;n/a;Indet.;García Sanjuán  et al. 2011, Tab. 4;n/a;García Sanjuán  et al. 2011, Tab. 4,;Coord. Aprox.
275;Spain;41,594166;2,413888899;East;S39;Costa de Can Martorell;Hypogeum/paradolmen;Ly-7838;3795;55;n/a;n/a;n/a;n/a;n/a;Human bone;Access;TAQ;http://www.telearchaeology.com/c14/db.aspx, 14.01.2011;Mercadal 2003, 221-228;http://www.telearchaeology.com/c14/db.aspx, 14.01.2011,Mercadal 2003, 221-228;n/a
276;Spain;41,594166;2,413888899;East;S39;Costa de Can Martorell;Hypogeum/paradolmen;Ly-7837;3810;55;n/a;n/a;n/a;n/a;n/a;Human bone;Chamber;TAQ;http://www.telearchaeology.com/c14/db.aspx, 14.01.2011;n/a;http://www.telearchaeology.com/c14/db.aspx, 14.01.2011,;n/a
278;Spain;41,594166;2,413888899;East;S39;Costa de Can Martorell;Hypogeum/paradolmen;UBAR-695;3875;50;n/a;n/a;n/a;n/a;n/a;Human bone;Chamber;n/a;http://www.idearqueologia.org/c14/?ln=es#fila-tabla;n/a;n/a;n/a
279;Spain;41,594166;2,413888899;East;S39;Costa de Can Martorell;Hypogeum/paradolmen;UBAR-696;3920;80;n/a;n/a;n/a;n/a;n/a;Human bone;Chamber;n/a;http://www.idearqueologia.org/c14/?ln=es#fila-tabla;n/a;n/a;Faunal bone according to Clop and Majó 2017
325;Spain;42,72267;-7,90688;Northwest;S40;Coto dos Mouros;Passage grave;CAMS-83116;3830;60;n/a;n/a;n/a;n/a;n/a;Charcoal;Painting with black charcoal;TPQ;Steelman et al. 2005, 385;n/a;Steelman et al. 2005, 385,;n/a
357;Spain;42,72267;-7,90688;Northwest;S40;Coto dos Mouros;Passage grave;CAMS-83631;5540;70;n/a;n/a;n/a;n/a;n/a;Charcoal;Painting with black charcoal;Indet.;Steelman et al 2005, 385;n/a;Steelman et al 2005, 385,;n/a
349;Spain;42,21633697;-8,64663257;Northwest;S41;Cotogrande 1;Non-accessible dolmen;GrN-18420;4940;80;n/a;n/a;n/a;n/a;n/a;Charcoal;Basement tumulus (cairn);TAQ;Fábregas Válcarce/Vilaseco Vázquez 2003, 293-294;n/a;Fábregas Válcarce/Vilaseco Vázquez 2003, 293-294,;n/a
354;Spain;42,21633697;-8,64663257;Northwest;S41;Cotogrande 1;Non-accessible dolmen;GrN-17698;5239;80;n/a;n/a;n/a;n/a;n/a;Charcoal;Surface ancient soil in Chamber;TPQ;Fábregas Válcarce/Vilaseco Vázquez 2003, 293-294;Abad 1992/93;Fábregas Válcarce/Vilaseco Vázquez 2003, 293-294,Abad 1992/93;n/a
328;Spain;42,2188267;-8,6392398;Northwest;S42;Cotogrande 5;Dolmen;GrN-19565;4065;45;n/a;n/a;n/a;n/a;n/a;Charcoal;Debris tumulus;Indet.;Fábregas Válcarce/Vilaseco Vázquez 2003, 293-294;n/a;Fábregas Válcarce/Vilaseco Vázquez 2003, 293-294,;n/a
334;Spain;42,2188267;-8,6392398;Northwest;S42;Cotogrande 5;Dolmen;GrN-19566;4390;50;n/a;n/a;n/a;n/a;n/a;Charcoal;Debris tumulus;Indet.;Fábregas Válcarce/Vilaseco Vázquez 2003, 293-294;Abad 1992/1993;Fábregas Válcarce/Vilaseco Vázquez 2003, 293-294,Abad 1992/1993;n/a
318;Spain;42,075061;2,543644495;East;S43;Cova de I´Avellaner;Cave;UBAR-109;5830;100;-20,2;n/a;n/a;n/a;n/a;Human bone;Sepulture in cave 3a - Zone 3;TAQ;Bosch/Tarrús 1990: 101;Mestres Torres et al. 1991;Bosch/Tarrús 1990: 101,;n/a
320;Spain;42,075061;2,543644495;East;S43;Cova de I´Avellaner;Cave;GaK-12933;5920;180;n/a;n/a;n/a;n/a;n/a;Human bone;Cave 1;TAQ;Bosch/Tarrús 1990: 101;n/a;Bosch/Tarrús 1990: 101,;Charcoal according to idearq.org
273;Spain;42,182777;2,793888891;East;S44;Cova de las Encantades de Martis;Cave;MC-1021;3570;250;n/a;n/a;n/a;n/a;n/a;Human bone;Depth 3.0 to 3.2;Indet.;http://www.telearchaeology.com/c14/db.aspx, 14.01.2011;"Bosch 1992; Crane et al 1965";http://www.telearchaeology.com/c14/db.aspx, 14.01.2011,Bosch 1992;n/a
286;Spain;42,182777;2,793888891;East;S44;Cova de las Encantades de Martis;Cave;MC-1022;4480;250;n/a;n/a;n/a;n/a;n/a;Human bone;Depth 1.2 to 1.4;TAQ;http://www.telearchaeology.com/c14/db.aspx, 14.01.2011;"Bosch 1992; Crane et al 1965";http://www.telearchaeology.com/c14/db.aspx, 14.01.2011,Bosch 1992;n/a
251;Spain;42,075061;2,543644495;East;S45;Cova de Montanissell;Cave;Beta-213110;3140;40;n/a;n/a;n/a;n/a;n/a;Human bone;E-11;n/a;n/a;Armentano et al. 2007;http://www.idearqueologia.org/c14/?ln=es#fila-tabla;n/a
252;Spain;42,075061;2,543644495;East;S45;Cova de Montanissell;Cave;Beta-213102;3180;40;n/a;n/a;n/a;n/a;n/a;Human bone;E-1;n/a;n/a;Armentano et al. 2007;http://www.idearqueologia.org/c14/?ln=es#fila-tabla;n/a
253;Spain;42,075061;2,543644495;East;S45;Cova de Montanissell;Cave;Beta-213106;3180;40;n/a;n/a;n/a;n/a;n/a;Human bone;E-7;n/a;n/a;Armentano et al. 2007;http://www.idearqueologia.org/c14/?ln=es#fila-tabla;n/a
254;Spain;42,075061;2,543644495;East;S45;Cova de Montanissell;Cave;Beta-213107;3180;40;n/a;n/a;n/a;n/a;n/a;Human bone;E-8;n/a;n/a;Armentano et al. 2007;http://www.idearqueologia.org/c14/?ln=es#fila-tabla;n/a
255;Spain;42,075061;2,543644495;East;S45;Cova de Montanissell;Cave;Beta-213103;3190;40;n/a;n/a;n/a;n/a;n/a;Human bone;E-2;n/a;n/a;Armentano et al. 2007;http://www.idearqueologia.org/c14/?ln=es#fila-tabla;n/a
256;Spain;42,075061;2,543644495;East;S45;Cova de Montanissell;Cave;Beta-213105;3200;40;n/a;n/a;n/a;n/a;n/a;Human bone;E-5;TAQ/after use;http://www.telearchaeology.com/c14/db.aspx, 14.01.2011;Armentano et al. 2007;http://www.telearchaeology.com/c14/db.aspx, 14.01.2011,;n/a
257;Spain;42,075061;2,543644495;East;S45;Cova de Montanissell;Cave;Beta-230404;3240;40;n/a;n/a;n/a;n/a;n/a;Human bone;CMO5-1001;TAQ/after use;http://www.telearchaeology.com/c14/db.aspx, 14.01.2011;n/a;http://www.telearchaeology.com/c14/db.aspx, 14.01.2011,;n/a
258;Spain;42,075061;2,543644495;East;S45;Cova de Montanissell;Cave;Beta-230405;3260;40;n/a;n/a;n/a;n/a;n/a;Human bone;CMO5-901;TAQ/after use;http://www.telearchaeology.com/c14/db.aspx, 14.01.2011;n/a;http://www.telearchaeology.com/c14/db.aspx, 14.01.2011,;n/a
260;Spain;42,075061;2,543644495;East;S45;Cova de Montanissell;Cave;Beta-213108;3330;40;n/a;n/a;n/a;n/a;n/a;Charcoal;UE 03;TAQ/after use;http://www.telearchaeology.com/c14/db.aspx, 14.01.2011;Armentano et al. 2007;http://www.telearchaeology.com/c14/db.aspx, 14.01.2011,;n/a
311;Spain;42,075061;2,543644495;East;S45;Cova de Montanissell;Cave;Beta-213109;5680;50;n/a;n/a;n/a;n/a;n/a;Charcoal;UE 05;n/a;http://www.idearqueologia.org/c14/?ln=es#fila-tabla;Armentano et al. 2007;n/a;n/a
142;Spain;36,80916667;-3,186388889;South;S46;Cueva de los Murciélagos;Cave;CSIC-246;5400;80;n/a;n/a;n/a;n/a;n/a;Grass;Uppright sitting burials;Indet.;Chacho Quesada et al. 1996, 116;n/a;Chacho Quesada et al. 1996, 116,;n/a
151;Spain;36,80916667;-3,186388889;South;S46;Cueva de los Murciélagos;Cave;CSIC-1132;5861;48;n/a;n/a;n/a;n/a;n/a;Grass;Uppright sitting burials;TAQ;Chacho Quesada et al. 1996, 116;n/a;Chacho Quesada et al. 1996, 116,;n/a
153;Spain;36,80916667;-3,186388889;South;S46;Cueva de los Murciélagos;Cave;CSIC-1134;5900;38;n/a;n/a;n/a;n/a;n/a;Grass;Uppright sitting burials;TAQ;Chacho Quesada et al. 1996, 116;n/a;Chacho Quesada et al. 1996, 116,;n/a
156;Spain;36,80916667;-3,186388889;South;S46;Cueva de los Murciélagos;Cave;CSIC-1133;6086;45;n/a;n/a;n/a;n/a;n/a;Grass;Uppright sitting burials;TAQ;Chacho Quesada et al. 1996, 116;n/a;Chacho Quesada et al. 1996, 116,;n/a
134;Spain;37,02388889;-4,548055556;South;S47;Dolmen de Menga;Passage grave;Ua-36216;4760;30;n/a;n/a;n/a;n/a;n/a;Charcoal;Basement tumulus;TPQ/construction?;Aranda Jimenez et al. 2013, Tab.2;n/a;Aranda Jimenez et al. 2013, Tab.2,;n/a
135;Spain;37,02388889;-4,548055556;South;S47;Dolmen de Menga;Passage grave;Ua-24583;4865;40;n/a;n/a;n/a;n/a;n/a;Charcoal;Depression atrium;TPQ/construction?;García Sanjuán 2009, 19;n/a;García Sanjuán 2009, 19,;n/a
136;Spain;37,02388889;-4,548055556;South;S47;Dolmen de Menga;Passage grave;Ua-24582;4935;40;n/a;n/a;n/a;n/a;n/a;Charcoal;Depression atrium;TPQ/construction?;García Sanjuán 2009, 19;n/a;García Sanjuán 2009, 19,;n/a
81;Spain;37,02333333;-4,548888889;South;S48;Dolmen de Viera;Passage grave;Beta-353822;3580;30;n/a;n/a;n/a;n/a;n/a;Animal bone;Chamber;TAQ;Aranda Jimenez et al. 2013, Tab.2;n/a;Aranda Jimenez et al. 2013, Tab.2,;n/a
120;Spain;37,02333333;-4,548888889;South;S48;Dolmen de Viera;Passage grave;Beta-353820;4090;30;n/a;n/a;n/a;n/a;n/a;Animal bone;Chamber;TAQ;Aranda Jimenez et al. 2013, Tab.2;n/a;Aranda Jimenez et al. 2013, Tab.2,;n/a
132;Spain;37,02333333;-4,548888889;South;S48;Dolmen de Viera;Passage grave;GrN-16067;4550;140;n/a;n/a;n/a;n/a;n/a;Charcoal;Ancient soil;Indet./TPQ?;Aranda Jimenez et al. 2013, Tab.2;n/a;Aranda Jimenez et al. 2013, Tab.2,;n/a
326;Spain;43,19012;-8,96944;Northwest;S49;Dombate new;Passage grave;UtC-3201;3950;60;n/a;n/a;n/a;n/a;n/a;Charcoal;Chamber;TAQ;Fábregas Válcarce/Vilaseco Vázquez 2003, 293-294;n/a;Fábregas Válcarce/Vilaseco Vázquez 2003, 293-294,;n/a
327;Spain;43,19012;-8,96944;Northwest;S49;Dombate new;Passage grave;CSIC-962;4020;30;n/a;n/a;n/a;n/a;n/a;Charcoal;Surface tumulus;Indet./TPQ?;Fábregas Válcarce/Vilaseco Vázquez 2003, 293-294;n/a;Fábregas Válcarce/Vilaseco Vázquez 2003, 293-294,;n/a
329;Spain;43,19012;-8,96944;Northwest;S49;Dombate new;Passage grave;CSIC-1066;4090;60;n/a;n/a;n/a;n/a;n/a;Charcoal;Surface tumulus;Indet./TPQ?;Fábregas Válcarce/Vilaseco Vázquez 2003, 293-294;n/a;Fábregas Válcarce/Vilaseco Vázquez 2003, 293-294,;n/a
330;Spain;43,19012;-8,96944;Northwest;S49;Dombate new;Passage grave;CSIC-948;4200;30;n/a;n/a;n/a;n/a;n/a;Charcoal;Surface tumulus;Indet./TPQ?;Fábregas Válcarce/Vilaseco Vázquez 2003, 293-294;n/a;Fábregas Válcarce/Vilaseco Vázquez 2003, 293-294,;n/a
331;Spain;43,19012;-8,96944;Northwest;S49;Dombate new;Passage grave;CSIC-892;4230;70;n/a;n/a;n/a;n/a;n/a;Charcoal;Entrance area;TAQ;Fábregas Válcarce/Vilaseco Vázquez 2003, 293-294;n/a;Fábregas Válcarce/Vilaseco Vázquez 2003, 293-294,;n/a
333;Spain;43,19012;-8,96944;Northwest;S49;Dombate new;Passage grave;CSIC-963;4380;35;n/a;n/a;n/a;n/a;n/a;Charcoal;Surface tumulus;Indet./TPQ?;Fábregas Válcarce/Vilaseco Vázquez 2003, 293-294;n/a;Fábregas Válcarce/Vilaseco Vázquez 2003, 293-294,;n/a
335;Spain;43,19012;-8,96944;Northwest;S49;Dombate new;Passage grave;CSIC-939;4410;25;n/a;n/a;n/a;n/a;n/a;Charcoal;Surface tumulus;Indet./TPQ?;Fábregas Válcarce/Vilaseco Vázquez 2003, 293-294;n/a;Fábregas Válcarce/Vilaseco Vázquez 2003, 293-294,;n/a
336;Spain;43,19012;-8,96944;Northwest;S49;Dombate new;Passage grave;CSIC-941;4430;25;n/a;n/a;n/a;n/a;n/a;Charcoal;Surface tumulus;Indet./TPQ?;Fábregas Válcarce/Vilaseco Vázquez 2003, 293-294;n/a;Fábregas Válcarce/Vilaseco Vázquez 2003, 293-294,;n/a
337;Spain;43,19012;-8,96944;Northwest;S49;Dombate new;Passage grave;UtC-3202;4430;50;n/a;n/a;n/a;n/a;n/a;Charcoal;Chamber;TAQ;Fábregas Válcarce/Vilaseco Vázquez 2003, 293-294;n/a;Fábregas Válcarce/Vilaseco Vázquez 2003, 293-294,;n/a
338;Spain;43,19012;-8,96944;Northwest;S49;Dombate new;Passage grave;CSIC-893;4450;70;n/a;n/a;n/a;n/a;n/a;Charcoal;Surface tumulus;Indet./TPQ?;Fábregas Válcarce/Vilaseco Vázquez 2003, 293-294;n/a;Fábregas Válcarce/Vilaseco Vázquez 2003, 293-294,;n/a
339;Spain;43,19012;-8,96944;Northwest;S49;Dombate new;Passage grave;CSIC-940;4450;70;n/a;n/a;n/a;n/a;n/a;Charcoal;Surface tumulus;Indet./TPQ?;Fábregas Válcarce/Vilaseco Vázquez 2003, 293-294;n/a;Fábregas Válcarce/Vilaseco Vázquez 2003, 293-294,;n/a
340;Spain;43,19012;-8,96944;Northwest;S49;Dombate new;Passage grave;CSIC-964;4470;30;n/a;n/a;n/a;n/a;n/a;Charcoal;Surface tumulus;Indet./TPQ?;Fábregas Válcarce/Vilaseco Vázquez 2003, 293-294;n/a;Fábregas Válcarce/Vilaseco Vázquez 2003, 293-294,;n/a
341;Spain;43,19012;-8,96944;Northwest;S49;Dombate new;Passage grave;CSIC-942;4480;25;n/a;n/a;n/a;n/a;n/a;Charcoal;Surface tumulus;Indet./TPQ?;Fábregas Válcarce/Vilaseco Vázquez 2003, 293-294;n/a;Fábregas Válcarce/Vilaseco Vázquez 2003, 293-294,;n/a
343;Spain;43,19012;-8,96944;Northwest;S49;Dombate new;Passage grave;UtC-3200;4780;60;n/a;n/a;n/a;n/a;n/a;Charcoal;Floor of the corrdidor;TAQ;Fábregas Válcarce/Vilaseco Vázquez 2003, 293-294;Bello 1995;Fábregas Válcarce/Vilaseco Vázquez 2003, 293-294,Bello 1995;n/a
346;Spain;43,19012;-8,96944;Northwest;S49;Dombate new;Passage grave;CSIC-891;4910;60;n/a;n/a;n/a;n/a;n/a;Charcoal;Surface ancient soil;Construction/TPQ;Fábregas Válcarce/Vilaseco Vázquez 2003, 293-294;n/a;Fábregas Válcarce/Vilaseco Vázquez 2003, 293-294,;n/a
348;Spain;43,19012;-8,96944;Northwest;S49;Dombate new;Passage grave;CSIC-890;4930;70;n/a;n/a;n/a;n/a;n/a;Charcoal;Surface ancient soil;Construction/TPQ;Fábregas Válcarce/Vilaseco Vázquez 2003, 293-294;Alonso/Bello 1995;Fábregas Válcarce/Vilaseco Vázquez 2003, 293-294,Alonso/Bello 1995;n/a
350;Spain;43,19012;-8,96944;Northwest;S49;Dombate new;Passage grave;UtC-3203;4950;70;n/a;n/a;n/a;n/a;n/a;Charcoal;Floor of the chamber;TAQ;Fábregas Válcarce/Vilaseco Vázquez 2003, 293-294;n/a;Fábregas Válcarce/Vilaseco Vázquez 2003, 293-294,;n/a
344;Spain;43,19017;-8,96934;Northwest;S50;Dombate old;Polygonal chamber;CAMS- 101904;4890;30;n/a;n/a;n/a;n/a;n/a;Organic material, seeds and wood;Fragment of pottery;n/a;Steelman, Carrera et alii 2005;n/a;n/a;n/a
345;Spain;43,19017;-8,96934;Northwest;S50;Dombate old;Polygonal chamber;CAMS- 101903;4895;30;n/a;n/a;n/a;n/a;n/a;Organic material, seeds and wood;Fragment of pottery;n/a;Steelman, Carrera et alii 2005;n/a;n/a;n/a
60;Spain;36,84111111;-2,206388889;South;S51;El Barranquete 11;Tumulus/tholos;CNA-2412;3120;35;-17,89;n/a;n/a;n/a;n/a;Human bone;Chamber. Human right ulna from an adult male (21-40 years old). Layer II;n/a;Aranda Jiménez, Lozano Medina 2014, 386;n/a;n/a;n/a
74;Spain;36,84111111;-2,206388889;South;S51;El Barranquete 11;Tumulus/tholos;Beta-301932;3470;40;-18,4;n/a;n/a;n/a;n/a;Human bone;Chamber. Human femur from an adult male (41-60 years old). Layer II;n/a;Aranda Jiménez, Lozano Medina 2014, 385;n/a;n/a;n/a
78;Spain;36,84111111;-2,206388889;South;S51;El Barranquete 11;Tumulus/tholos;Beta-301934;3530;30;-18,3;n/a;n/a;n/a;n/a;Human bone;Chamber. Human right femur from an adult male (21-30 years old). Layer III;n/a;Aranda Jiménez, Lozano Medina 2014, 384;n/a;n/a;n/a
83;Spain;36,84111111;-2,206388889;South;S51;El Barranquete 11;Tumulus/tholos;CNA-2409;3625;40;-23,11;n/a;n/a;n/a;n/a;Human bone;Chamber. Human skull fragment from an unesexed adult (30-35 years old). Layer III;n/a;Aranda Jiménez, Lozano Medina 2014, 382;n/a;n/a;n/a
86;Spain;36,84111111;-2,206388889;South;S51;El Barranquete 11;Tumulus/tholos;Beta-301933;3670;40;-18,7;n/a;n/a;n/a;n/a;Human bone;Chamber. Human skull fragment from an unesexed adult (41-60 years old). Layer III;n/a;Aranda Jiménez, Lozano Medina 2014, 383;n/a;n/a;n/a
92;Spain;36,84111111;-2,206388889;South;S51;El Barranquete 11;Tumulus/tholos;CNA-2406;3730;35;-18,82;n/a;n/a;n/a;n/a;Human bone;Chamber. Human left humerus from an adult male (21-40 years old). Layer IV;n/a;Aranda Jiménez, Lozano Medina 2014, 381;n/a;n/a;n/a
98;Spain;36,84111111;-2,206388889;South;S51;El Barranquete 11;Tumulus/tholos;CNA-2410;3785;35;-25,3;n/a;n/a;n/a;n/a;Human bone;Chamber. Human tibia from an adult male (21-40 years old). Layer IV;n/a;Aranda Jiménez, Lozano Medina 2014, 380;n/a;n/a;n/a
100;Spain;36,84111111;-2,206388889;South;S51;El Barranquete 11;Tumulus/tholos;CNA-2411;3830;35;-19,02;n/a;n/a;n/a;n/a;Human bone;Chamber. Human skull fragment from an adult male (+30 years old). Layer IV;n/a;Aranda Jiménez, Lozano Medina 2014, 379;n/a;n/a;n/a
102;Spain;36,84111111;-2,206388889;South;S51;El Barranquete 11;Tumulus/tholos;CNA-2404;3856;35;-20,1;n/a;n/a;n/a;n/a;Human bone;Chamber. Human right radius from an adult female (21-40 years old). Layer IV;n/a;Aranda Jiménez, Lozano Medina 2014, 376;n/a;n/a;n/a
103;Spain;36,84111111;-2,206388889;South;S51;El Barranquete 11;Tumulus/tholos;CNA-2407;3860;35;-19,72;n/a;n/a;n/a;n/a;Human bone;Chamber. Human left radius from an adult male (21-40 years old). Layer IV;n/a;Aranda Jiménez, Lozano Medina 2014, 377;n/a;n/a;n/a
104;Spain;36,84111111;-2,206388889;South;S51;El Barranquete 11;Tumulus/tholos;CNA-2408;3860;35;-19,72;n/a;n/a;n/a;n/a;Human bone;Chamber. Human skull fragment from an infantile (7-12 years old). Layer IV;n/a;Aranda Jiménez, Lozano Medina 2014, 378;n/a;n/a;n/a
110;Spain;36,84111111;-2,206388889;South;S51;El Barranquete 11;Tumulus/tholos;CNA-2405;3925;35;-20,19;n/a;n/a;n/a;n/a;Human bone;Chamber. Human right humerus from an adult female (21-40 years old). Layer IV;n/a;Aranda Jiménez, Lozano Medina 2014, 375;n/a;n/a;n/a
124;Spain;36,84305556;-2,207222222;South;S52;El Barranquete 7;Tumulus/tholos;CSIC-81;4280;130;n/a;n/a;n/a;n/a;n/a;Charcoal;Chamber;TAQ;Müller 1998, 87, Chapman 1991, 86;Alonso et al. 1978;Müller 1998, 87, Chapman 1991, 86,Alonso et al. 1978;n/a
125;Spain;36,84305556;-2,207222222;South;S52;El Barranquete 7;Tumulus/tholos;CSIC-82;4300;130;n/a;n/a;n/a;n/a;n/a;Charcoal;Tomb 7, chamber;TAQ;Müller 1998, 87, Chapman 1981, 32.;Alonso et al. 1978;Müller 1998, 87, Chapman 1981, 32.,Alonso et al. 1978;n/a
539;Spain;39,991466;-4,209227;Centre;S53;El Castillejo;Tumulus;N.R.-N.R.;3710;70;n/a;n/a;n/a;n/a;n/a;Human bone;;n/a;IDEArq.org;n/a;n/a;n/a
541;Spain;39,991466;-4,209227;Centre;S53;El Castillejo;Tumulus;Beta-145274;3810;70;n/a;n/a;n/a;n/a;n/a;Human bone;Platform;TAQ;García Sanjuán  et al. 2011, Tab. 3;Bueno Ramírez et al. 2000;García Sanjuán  et al. 2011, Tab. 3,Bueno Ramírez et al. 2000;n/a
545;Spain;39,991466;-4,209227;Centre;S53;El Castillejo;Tumulus;GX-29783;4050;70;n/a;n/a;n/a;n/a;n/a;Human bone;Burial, Individual 5;TAQ;Bueno Ramírez et al. 2010, Tab 3;Bueno Ramírez et al. 2005;Bueno Ramírez et al. 2010, Tab 3,Bueno Ramírez et al. 2005;n/a
546;Spain;39,991466;-4,209227;Centre;S53;El Castillejo;Tumulus;GX-29784;4180;50;n/a;n/a;n/a;n/a;n/a;Human bone;Burial, Individual 15;TAQ;Bueno Ramírez et al. 2010, Tab 3;Bueno Ramírez et al. 2005;Bueno Ramírez et al. 2010, Tab 3,Bueno Ramírez et al. 2005;n/a
550;Spain;39,991466;-4,209227;Centre;S53;El Castillejo;Tumulus;Beta-132915;4930;40;n/a;n/a;n/a;n/a;n/a;Charcoal;;n/a;IDEArq.org;n/a;n/a;n/a
554;Spain;39,991466;-4,209227;Centre;S53;El Castillejo;Tumulus;Beta-132917;5710;150;n/a;n/a;n/a;n/a;n/a;Human bone;Burial, Individual 4;TAQ;García Sanjuán  et al. 2011, Tab. 2;Bueno Ramírez et al. 1999;García Sanjuán  et al. 2011, Tab. 2,Bueno Ramírez et al. 1999;n/a
428;Spain;41,76527778;-5,765277778;Centre;S54;El Miradero;Non-megalithic tumulus;QL-N.R.;4490;20;n/a;n/a;n/a;n/a;n/a;n/a;Burial;n/a;http://www.idearqueologia.org/c14/?ln=es#fila-tabla;n/a;n/a;Coord. Aprox.
444;Spain;41,76527778;-5,765277778;Centre;S54;El Miradero;Non-megalithic tumulus;GrN-N.R.C;4940;40;n/a;n/a;n/a;n/a;n/a;n/a;Burial;n/a;http://www.idearqueologia.org/c14/?ln=es#fila-tabla;n/a;n/a;Coord. Aprox.
449;Spain;41,76527778;-5,765277778;Centre;S54;El Miradero;Non-megalithic tumulus;GrN-12100;5115;35;n/a;n/a;n/a;n/a;n/a;Charcoal;Burial;Indet./TPQ?;Müller 1998, 82;n/a;Müller 1998, 82,;Coord. Aprox.
451;Spain;41,76527778;-5,765277778;Centre;S54;El Miradero;Non-megalithic tumulus;GrN-N.R.B;5120;25;n/a;n/a;n/a;n/a;n/a;n/a;Burial;n/a;http://www.idearqueologia.org/c14/?ln=es#fila-tabla;n/a;n/a;Coord. Aprox.
453;Spain;41,76527778;-5,765277778;Centre;S54;El Miradero;Non-megalithic tumulus;GrN-N.R.A;5135;45;n/a;n/a;n/a;n/a;n/a;n/a;Burial;n/a;http://www.idearqueologia.org/c14/?ln=es#fila-tabla;n/a;n/a;Coord. Aprox.
455;Spain;41,76527778;-5,765277778;Centre;S54;El Miradero;Non-megalithic tumulus;GrN-12101;5155;35;n/a;n/a;n/a;n/a;n/a;Charcoal;Burial;Indet./TPQ?;Müller 1998, 82;Cassen et-al. 1996, 513.;Müller 1998, 82,Cassen et-al. 1996, 513.;Coord. Aprox.
429;Spain;41,76527778;-5,765277778;Centre;S54;El Miradero;Non-megalithic tumulus;QL-N.R.;4490;20;n/a;n/a;n/a;n/a;n/a;n/a;Burial;n/a;http://www.idearqueologia.org/c14/?ln=es#fila-tabla;n/a;n/a;Coord. Aprox.
445;Spain;41,76527778;-5,765277778;Centre;S54;El Miradero;Non-megalithic tumulus;GrN-N.R.C;4940;40;n/a;n/a;n/a;n/a;n/a;n/a;Burial;n/a;http://www.idearqueologia.org/c14/?ln=es#fila-tabla;n/a;n/a;Coord. Aprox.
450;Spain;41,76527778;-5,765277778;Centre;S54;El Miradero;Non-megalithic tumulus;GrN-12100;5115;35;n/a;n/a;n/a;n/a;n/a;Charcoal;Burial;Indet./TPQ?;Müller 1998, 82;n/a;Müller 1998, 82,;Coord. Aprox.
452;Spain;41,76527778;-5,765277778;Centre;S54;El Miradero;Non-megalithic tumulus;GrN-N.R.B;5120;25;n/a;n/a;n/a;n/a;n/a;n/a;Burial;n/a;http://www.idearqueologia.org/c14/?ln=es#fila-tabla;n/a;n/a;Coord. Aprox.
454;Spain;41,76527778;-5,765277778;Centre;S54;El Miradero;Non-megalithic tumulus;GrN-N.R.A;5135;45;n/a;n/a;n/a;n/a;n/a;n/a;Burial;n/a;http://www.idearqueologia.org/c14/?ln=es#fila-tabla;n/a;n/a;Coord. Aprox.
456;Spain;41,76527778;-5,765277778;Centre;S54;El Miradero;Non-megalithic tumulus;GrN-12101;5155;35;n/a;n/a;n/a;n/a;n/a;Charcoal;Burial;Indet./TPQ?;Müller 1998, 82;Cassen et-al. 1996, 513.;Müller 1998, 82,Cassen et-al. 1996, 513.;Coord. Aprox.
308;Spain;42,017011;2,439391173;East;S55;El Padró II;Non-accessible dolmen;UBAR-116;5580;130;n/a;n/a;n/a;n/a;n/a;Charcoal;From tumulus or chamber, burial with Montboló material;Construction?/TAQ;Cruells et al. 1992, 245;Mestres Torres et al. 1996;Cruells et al. 1992, 245,;n/a
309;Spain;42,017011;2,439391173;East;S55;El Padró II;Non-accessible dolmen;UBAR-113;5600;130;n/a;n/a;n/a;n/a;n/a;Charcoal;From tumulus or chamber, burial with Montboló material;TPQ;Cruells et al. 1992, 245;Mestres Torres et al. 1996;Cruells et al. 1992, 245,;n/a
314;Spain;42,017011;2,439391173;East;S55;El Padró II;Non-accessible dolmen;UBAR-114;5770;80;n/a;n/a;n/a;n/a;n/a;Charcoal;From tumulus or chamber, burial with Montboló material;TPQ;Cruells et al. 1992, 245;Mestres Torres et al. 1996;Cruells et al. 1992, 245,;n/a
319;Spain;42,017011;2,439391173;East;S55;El Padró II;Non-accessible dolmen;UBAR-115;5870;100;n/a;n/a;n/a;n/a;n/a;Charcoal;From tumulus or chamber, burial with Montboló material;TPQ;Cruells et al. 1992, 245;Mestres Torres et al. 1996;Cruells et al. 1992, 245,;n/a
293;Spain;41,598333;1,509444482;East;S56;Els Vilars de Tous;Settlement;UBAR-666;5280;90;n/a;n/a;n/a;n/a;n/a;Charcoal;Level IV;TAQ;http://www.telearchaeology.com/c14/db.aspx, 27.04.2011;Clop et al. 2005, 557;http://www.telearchaeology.com/c14/db.aspx, 27.04.2011,Clop et al. 2005, 557;n/a
297;Spain;41,598333;1,509444482;East;S56;Els Vilars de Tous;Settlement;UBAR-554;5340;90;n/a;n/a;n/a;n/a;n/a;Charcoal;Level IV;TAQ;http://www.telearchaeology.com/c14/db.aspx, 27.04.2011;Clop et al. 2005, 557;http://www.telearchaeology.com/c14/db.aspx, 27.04.2011,Clop et al. 2005, 557;n/a
362;Portugal;38,769799;-9,268312;Southwest;S57;Estria;Passage grave;Beta-228578;4110;40;-20.00;n/a;n/a;n/a;n/a;Human bone;Chamber;TAQ;Boaventura 2009, Tab.22;n/a;Boaventura 2009, Tab.22,;n/a
365;Portugal;38,769799;-9,268312;Southwest;S57;Estria;Passage grave;Beta-208950;4180;50;-20.00;n/a;n/a;n/a;n/a;Human bone;Chamber;TAQ;Boaventura 2009, Tab.22;n/a;Boaventura 2009, Tab.22,;n/a
315;Spain;42,026252;2,432110532;East;S58;Font de la Vena;Non-accessible dolmen;UBAR-60;5780;290;n/a;n/a;n/a;n/a;n/a;Charcoal;From tumulus or chamber, burial with Montboló material;TPQ;Cruells et al. 1992, 245;Mestres Torres et al. 1991;Cruells et al. 1992, 245,;Dates are older than expected by archaeologists according to Mestres Torres et al. 1991, 359
321;Spain;42,026252;2,432110532;East;S58;Font de la Vena;Non-accessible dolmen;UBAR-61;6190;100;n/a;n/a;n/a;n/a;n/a;Charcoal;From tumulus or chamber, burial with Montboló material;TPQ;Cruells et al. 1992, 245;Mestres Torres et al. 1991;Cruells et al. 1992, 245,;Dates are older than expected by archaeologists according to Mestres Torres et al. 1991, 359
84;Spain;37,32916667;-1,858055556;South;S59;Fuente Alamo Tomb 58;Small cave (covacha);KIA-42492;3631;14;n/a;n/a;n/a;n/a;n/a;Human bone;Tomb 58;n/a;http://www.idearqueologia.org/c14/?ln=es#fila-tabla;n/a;n/a;n/a
97;Spain;37,32916667;-1,858055556;South;S59;Fuente Alamo Tomb 58;Small cave (covacha);KIA-42493;3761;14;n/a;n/a;n/a;n/a;n/a;Human bone;Tomb 58;n/a;http://www.idearqueologia.org/c14/?ln=es#fila-tabla;n/a;n/a;n/a
72;Spain;37,32916667;-1,858055556;South;S60;Fuente Alamo Tomb 90;Small cave (covacha);OxA-5047;3435;55;n/a;n/a;n/a;n/a;n/a;n/a;Tomb 90;Indet.;García Sanjuán et al. 2011, Tab. 4;n/a;García Sanjuán et al. 2011, Tab. 4,;n/a
80;Spain;37,32916667;-1,858055556;South;S60;Fuente Alamo Tomb 90;Small cave (covacha);OxA-4972;3545;65;n/a;n/a;n/a;n/a;n/a;n/a;n/a;Indet.;García Sanjuán et al. 2011, Tab. 4;n/a;García Sanjuán et al. 2011, Tab. 4,;n/a
82;Spain;37,32916667;-1,858055556;South;S61;Fuente Alamo Tomb 96;Small cave (covacha);KIK/KIA-2936/22256;3580;30;n/a;n/a;n/a;n/a;n/a;Human bone;Tomb 96 - east side;n/a;http://www.idearqueologia.org/c14/?ln=es#fila-tabla;n/a;n/a;n/a
85;Spain;37,32916667;-1,858055556;South;S61;Fuente Alamo Tomb 96;Small cave (covacha);Bln-4773;3652;39;n/a;n/a;n/a;n/a;n/a;Charcoal;south side;n/a;http://www.idearqueologia.org/c14/?ln=es#fila-tabla;n/a;n/a;n/a
87;Spain;37,32916667;-1,858055556;South;S61;Fuente Alamo Tomb 96;Small cave (covacha);Bln-4539;3679;44;n/a;n/a;n/a;n/a;n/a;Charcoal;south side;n/a;http://www.idearqueologia.org/c14/?ln=es#fila-tabla;n/a;n/a;n/a
90;Spain;37,32916667;-1,858055556;South;S61;Fuente Alamo Tomb 96;Small cave (covacha);Bln-4540;3711;45;n/a;n/a;n/a;n/a;n/a;Charcoal;south side;n/a;http://www.idearqueologia.org/c14/?ln=es#fila-tabla;n/a;n/a;n/a
93;Spain;37,32916667;-1,858055556;South;S61;Fuente Alamo Tomb 96;Small cave (covacha);Bln-4772;3738;39;n/a;n/a;n/a;n/a;n/a;Charcoal;south side;n/a;http://www.idearqueologia.org/c14/?ln=es#fila-tabla;n/a;n/a;n/a
96;Spain;37,32916667;-1,858055556;South;S61;Fuente Alamo Tomb 96;Small cave (covacha);KIK/KIA-2941/22261;3760;25;n/a;n/a;n/a;n/a;n/a;Human bone;Tomb 96 - east side;n/a;http://www.idearqueologia.org/c14/?ln=es#fila-tabla;n/a;n/a;n/a
459;Spain;42,67111111;-3,7175;North;S62;Fuentepecina;Passage grave;GrN-16073;5270;140;n/a;n/a;n/a;n/a;n/a;Charcoal;Ancient soil level 6;TPQ;Cassen et al. 1993, Tab. 2, 513.;n/a;Cassen et al. 1993, Tab. 2, 513.,;Fuentepecina II according Idearq.org
460;Spain;42,67111111;-3,7175;North;S62;Fuentepecina;Passage grave;GrN-16073;5270;140;n/a;n/a;n/a;n/a;n/a;Charcoal;Ancient soil level 6;TPQ;Cassen et al. 1993, Tab. 2, 513.;n/a;Cassen et al. 1993, Tab. 2, 513.,;Fuentepecina II according Idearq.org
464;Spain;42,67111111;-3,7175;North;S62;Fuentepecina;Passage grave;GrN-18669;5375;45;n/a;n/a;n/a;n/a;n/a;Charcoal;Chamber level 6;Indet.;Boaventura 2009, annex 33;Delibes de Castro/Rojo Guerra 1997 ;Boaventura 2009, annex 33,Delibes de Castro/Rojo Guerra 1997 ;Fuentepecina II according Idearq.org
465;Spain;42,67111111;-3,7175;North;S62;Fuentepecina;Passage grave;GrN-18669;5375;45;n/a;n/a;n/a;n/a;n/a;Charcoal;Chamber level 6;Indet.;Boaventura 2009, annex 33;Delibes de Castro/Rojo Guerra 1997 ;Boaventura 2009, annex 33,Delibes de Castro/Rojo Guerra 1997 ;Fuentepecina II according Idearq.org
458;Spain;42,67333333;-3,717222222;North;S62;Fuentepecina;Passage grave;GrN-18667;5170;100;n/a;n/a;n/a;n/a;n/a;Charcoal;Basement chamber;Indet.;Boaventura 2009, annex 33;Delibes de Castro/Rojo Guerra 1997 ;Boaventura 2009, annex 33,Delibes de Castro/Rojo Guerra 1997 ;Fuentepecina I
457;Spain;42,67333333;-3,717222222;North;S62;Fuentepecina;Passage grave;GrN-18667;5170;100;n/a;n/a;n/a;n/a;n/a;Charcoal;Basement chamber;Indet.;Boaventura 2009, annex 33;Delibes de Castro/Rojo Guerra 1997 ;Boaventura 2009, annex 33,Delibes de Castro/Rojo Guerra 1997 ;Fuentepecina I
160;Spain;43,180315;-6,916583;North;S63;La Xorenga;Tumulus;CSIC-1382;5059;30;n/a;n/a;n/a;n/a;n/a;Charcoal;Sector C;Indet.;Cabal et.al.2000, 131;Sánchez Hidalgo 1999;Cabal et.al.2000, 131,;Site also named as Canadeiro I
161;Spain;43,180315;-6,916583;North;S63;La Xorenga;Tumulus;CSIC-1381;5080;30;n/a;n/a;n/a;n/a;n/a;Charcoal;Sector C;Indet.;Cabal et.al.2000, 131;Sánchez Hidalgo 1999;Cabal et.al.2000, 131,;Site also named as Canadeiro I
225;Portugal;40,94;-7,35;West;S64;Lameira de Cima 2;Passage grave;CSIC-1113;4961;27;n/a;n/a;n/a;n/a;n/a;Charcoal;Corridor;Indet.;Senna-Martinez/Ventura 2008,333;Cruz 1995;Senna-Martinez/Ventura 2008,333,Cruz 1995;n/a
231;Portugal;40,94;-7,35;West;S64;Lameira de Cima 2;Passage grave;GrN-21353;4990;40;n/a;n/a;n/a;n/a;n/a;Charcoal;Corridor;Indet;Senna-Martinez/Ventura 2008,333;Cruz 1995;Senna-Martinez/Ventura 2008,333,Cruz 1995;n/a
232;Portugal;40,94;-7,35;West;S64;Lameira de Cima 2;Passage grave;CSIC-1114;4999;29;n/a;n/a;n/a;n/a;n/a;Charcoal;Corridor;Indet.;Senna-Martinez/Ventura 2008,333;Cruz 1995;Senna-Martinez/Ventura 2008,333,Cruz 1995;n/a
244;Portugal;40,94;-7,35;West;S64;Lameira de Cima 2;Passage grave;OxA-5102;5360;55;n/a;n/a;n/a;n/a;n/a;Charcoal;Corridor;TPQ;Cruz 1995;n/a;Cruz 1995,;n/a
172;Spain;43,0867175;-2,2154198;North;S65;Larrarte;Dolmen;GrA-20497;3620;60;n/a;n/a;n/a;n/a;n/a;Human bone;n/a;n/a;n/a;n/a;n/a;n/a
173;Spain;43,0867175;-2,2154198;North;S65;Larrarte;Dolmen;Ua-10376;3920;75;n/a;n/a;n/a;n/a;n/a;Human bone;Skull n. 1;n/a;n/a;n/a;n/a;n/a
174;Spain;43,0867175;-2,2154198;North;S65;Larrarte;Dolmen;GrA-20283;3990;80;n/a;n/a;n/a;n/a;n/a;Human bone;n/a;n/a;n/a;n/a;n/a;n/a
175;Spain;43,0867175;-2,2154198;North;S65;Larrarte;Dolmen;Ua-11139;4055;60;n/a;n/a;n/a;n/a;n/a;Human bone;Skull n. 13;n/a;n/a;n/a;n/a;n/a
178;Spain;43,0867175;-2,2154198;North;S65;Larrarte;Dolmen;GrA-20304;4590;50;n/a;n/a;n/a;n/a;n/a;Human bone;n/a;n/a;n/a;n/a;n/a;n/a
180;Spain;43,0867175;-2,2154198;North;S65;Larrarte;Dolmen;GrA-22140;4790;170;n/a;n/a;n/a;n/a;n/a;Human bone;n/a;n/a;n/a;n/a;n/a;n/a
181;Spain;43,0867175;-2,2154198;North;S65;Larrarte;Dolmen;I-14919;5070;140;n/a;n/a;n/a;n/a;1;Charcoal;Base of the dolmen;Indet.;Cabal et.al.2000, 131;de Blas 1999;Cabal et.al.2000, 131,de Blas 1999;n/a
183;Spain;43,0867175;-2,2154198;North;S65;Larrarte;Dolmen;I-14781;5810;290;n/a;n/a;n/a;n/a;1;Charcoal;Base of the dolmen;Indet.;Cabal et.al.2000, 131;de Blas 1999;Cabal et.al.2000, 131,de Blas 1999;n/a
266;Spain;41,630741;1,559597226;East;S66;Les Maioles;Dolmen;UBAR-559;3465;50;n/a;n/a;n/a;n/a;n/a;Human bone;Individual A;TAQ;http://www.telearchaeology.com/c14/db.aspx, 14.01.2011;n/a;http://www.telearchaeology.com/c14/db.aspx, 14.01.2011,;n/a
267;Spain;41,630741;1,559597226;East;S66;Les Maioles;Dolmen;UBAR-558;3475;50;n/a;n/a;n/a;n/a;n/a;Human bone;Individual E;TAQ;http://www.telearchaeology.com/c14/db.aspx, 14.01.2011;n/a;http://www.telearchaeology.com/c14/db.aspx, 14.01.2011,;n/a
268;Spain;41,630741;1,559597226;East;S66;Les Maioles;Dolmen;UBAR-560;3495;50;n/a;n/a;n/a;n/a;n/a;Human bone;Individual B;TAQ;http://www.telearchaeology.com/c14/db.aspx, 14.01.2011;n/a;http://www.telearchaeology.com/c14/db.aspx, 14.01.2011,;n/a
58;Spain;36,99666667;-3,888055556;South;S67;Los Bermejales 8;Megalithic tomb;Ua-39501;3018;30;n/a;n/a;n/a;n/a;n/a;Human bone;Burial chamber;n/a;Cámara, Molina, 2015;n/a;n/a;n/a
61;Spain;36,99666667;-3,888055556;South;S67;Los Bermejales 8;Megalithic tomb;Beta-301937;3160;30;n/a;n/a;n/a;n/a;n/a;Human bone;Burial chamber;n/a;Aranda Jiménez, 2013;n/a;n/a;n/a
62;Spain;36,99666667;-3,888055556;South;S67;Los Bermejales 8;Megalithic tomb;Ua-39503;3168;32;n/a;n/a;n/a;n/a;n/a;Human bone;Burial chamber;n/a;Cámara, Molina, 2015;n/a;n/a;n/a
63;Spain;36,99666667;-3,888055556;South;S67;Los Bermejales 8;Megalithic tomb;Ua-39495;3183;30;n/a;n/a;n/a;n/a;n/a;Human bone;Burial chamber;n/a;Cámara, Molina, 2015;n/a;n/a;n/a
64;Spain;36,99666667;-3,888055556;South;S67;Los Bermejales 8;Megalithic tomb;Ua-39499;3218;30;n/a;n/a;n/a;n/a;n/a;Human bone;Burial chamber;n/a;Cámara, Molina, 2015;n/a;n/a;n/a
65;Spain;36,99666667;-3,888055556;South;S67;Los Bermejales 8;Megalithic tomb;Ua-39497;3225;36;n/a;n/a;n/a;n/a;n/a;Human bone;Burial chamber;n/a;Cámara, Molina, 2015;n/a;n/a;n/a
66;Spain;36,99666667;-3,888055556;South;S67;Los Bermejales 8;Megalithic tomb;Ua-39500;3246;30;n/a;n/a;n/a;n/a;n/a;Human bone;Burial chamber;n/a;Cámara, Molina, 2015;n/a;n/a;n/a
69;Spain;36,99666667;-3,888055556;South;S67;Los Bermejales 8;Megalithic tomb;Ua-39502;3269;31;n/a;n/a;n/a;n/a;n/a;Human bone;Burial chamber;n/a;Cámara, Molina, 2015;n/a;n/a;n/a
70;Spain;36,99666667;-3,888055556;South;S67;Los Bermejales 8;Megalithic tomb;Ua-39496;3286;30;n/a;n/a;n/a;n/a;n/a;Human bone;Burial chamber;n/a;Cámara, Molina, 2015;n/a;n/a;n/a
71;Spain;36,99666667;-3,888055556;South;S67;Los Bermejales 8;Megalithic tomb;Beta-301936;3300;30;n/a;n/a;n/a;n/a;n/a;Human bone;Burial chamber;n/a;Aranda Jiménez, 2014;n/a;n/a;n/a
79;Spain;36,99666667;-3,888055556;South;S67;Los Bermejales 8;Megalithic tomb;Ua-39498;3543;36;n/a;n/a;n/a;n/a;n/a;Human bone;Burial chamber;n/a;Cámara, Molina, 2015;n/a;n/a;n/a
89;Spain;37,55861111;-6,735277778;South;S68;Los Gabrieles 4;Gallery grave;Beta-185650;3700;50;n/a;n/a;n/a;n/a;n/a;Charcoal;Burial chamber (layer 2);Indet.;García Sanjuán  et al. 2011, Tab. 4;n/a;García Sanjuán  et al. 2011, Tab. 4,;Coord. Aprox.
101;Spain;37,55861111;-6,735277778;South;S68;Los Gabrieles 4;Gallery grave;Beta-185648;3850;40;n/a;n/a;n/a;n/a;n/a;Charcoal;Burial chamber (layer 3);Indet.;García Sanjuán 2009, 19;n/a;García Sanjuán 2009, 19,;Coord. Aprox.
109;Spain;37,55861111;-6,735277778;South;S68;Los Gabrieles 4;Gallery grave;Beta-185649;3920;50;n/a;n/a;n/a;n/a;n/a;Charcoal;Tomb 3. Burial chamber (layer 4);Indet.;García Sanjuán  et al. 2011, Tab. 3;n/a;García Sanjuán  et al. 2011, Tab. 3,;Coord. Aprox.
176;Spain;42,5937044;-2,532275;North;S69;Los Llanos 1;Passage grave;I-15195;4080;160;n/a;n/a;n/a;n/a;n/a;Human bone;Chamber, upper level;TAQ;Müller 1998, 82;Cassen et al. 1996, 514;Müller 1998, 82,Cassen et al. 1996, 514;n/a
177;Spain;42,5937044;-2,532275;North;S69;Los Llanos 1;Passage grave;I-14593;4090;120;n/a;n/a;n/a;n/a;n/a;Human bone;Chamber, upper level;TAQ;Müller 1998, 82;Cassen et al. 1996, 514;Müller 1998, 82,Cassen et al. 1996, 514;n/a
179;Spain;42,5937044;-2,532275;North;S69;Los Llanos 1;Passage grave;I-14788;4660;200;n/a;n/a;n/a;n/a;n/a;Human bone;Ground level corridor;TAQ;Müller 1998, 82;Cassen et al. 1996, 514;Müller 1998, 82,Cassen et al. 1996, 514;n/a
182;Spain;42,5937044;-2,532275;North;S69;Los Llanos 1;Passage grave;I-15168;5190;140;n/a;n/a;n/a;n/a;n/a;Human bone;Ground level corriidor;TAQ;Müller 1998, 82;Cassen et al. 1996, 514;Müller 1998, 82,Cassen et al. 1996, 514;n/a
468;Portugal;41,299688;-7,609386;West;S70;Madorras I;Passage grave;GrA-884;3500;40;n/a;n/a;n/a;n/a;n/a;Charcoal;Surface ancient soil;TPQ;Cruz 1995;n/a;Cruz 1995,;n/a
483;Portugal;41,299688;-7,609386;West;S70;Madorras I;Passage grave;GrA-855;4420;40;n/a;n/a;n/a;n/a;n/a;Charcoal;Entrance area, floor atrium;TAQ;Cruz 1995;n/a;Cruz 1995,;n/a
484;Portugal;41,299688;-7,609386;West;S70;Madorras I;Passage grave;OxA-5199;4540;65;n/a;n/a;n/a;n/a;n/a;Charcoal;Ancient soil;TPQ;Cruz 1995;n/a;Cruz 1995,;n/a
489;Portugal;41,299688;-7,609386;West;S70;Madorras I;Passage grave;GrN-21066;4790;60;n/a;n/a;n/a;n/a;n/a;Charcoal;On side stone;Indet.;Cruz 1995;n/a;Cruz 1995,;n/a
521;Portugal;41,299688;-7,609386;West;S70;Madorras I;Passage grave;CSIC-1030;5280;40;n/a;n/a;n/a;n/a;n/a;Charcoal;Between orthostats;TPQ;Cruz 1995;n/a;Cruz 1995,;n/a
502;Portugal;41,198862;-8,033338;West;S71;Mamoa da Mina de São Simão;Passage grave;CSIC-715;5010;70;n/a;n/a;n/a;n/a;n/a;Charcoal;Basement chamber;TPQ;Cruz 1995;n/a;Cruz 1995,;n/a
505;Portugal;41,198862;-8,033338;West;S71;Mamoa da Mina de São Simão;Passage grave;CSIC-716;5050;70;n/a;n/a;n/a;n/a;n/a;Charcoal;Basement chamber;TPQ;Cruz 1995;n/a;Cruz 1995,;n/a
509;Portugal;41,198862;-8,033338;West;S71;Mamoa da Mina de São Simão;Passage grave;CSIC-717;5130;90;n/a;n/a;n/a;n/a;n/a;Charcoal;Ancient soil;TPQ;Cruz 1995;n/a;Cruz 1995,;n/a
471;Portugal;41,483947;-7,401857;West;S72;Mamoa do Castelo 1;Passage grave;CSIC-1816;3806;32;n/a;n/a;n/a;n/a;n/a;Charcoal;Under stones of tumulus;TAQ;Sanches et al. 2005;n/a;Sanches et al. 2005,;n/a
474;Portugal;41,483947;-7,401857;West;S72;Mamoa do Castelo 1;Passage grave;CSIC-1815;3862;33;n/a;n/a;n/a;n/a;n/a;Charcoal;Antechamber;TAQ;Sanches et al. 2005;n/a;Sanches et al. 2005,;n/a
476;Portugal;41,483947;-7,401857;West;S72;Mamoa do Castelo 1;Passage grave;CSIC-1817;4057;33;n/a;n/a;n/a;n/a;n/a;Charcoal;Corridor;TAQ;Sanches et al. 2005;n/a;Sanches et al. 2005,;n/a
477;Portugal;41,483947;-7,401857;West;S72;Mamoa do Castelo 1;Passage grave;Ua-19122;4080;70;n/a;n/a;n/a;n/a;n/a;Charcoal;Corridor;TAQ;Sanches et al. 2005;n/a;Sanches et al. 2005,;n/a
480;Portugal;41,483947;-7,401857;West;S72;Mamoa do Castelo 1;Passage grave;CSIC-1814;4136;33;n/a;n/a;n/a;n/a;n/a;Charcoal;Entrance area;TAQ;Sanches et al. 2005;n/a;Sanches et al. 2005,;n/a
485;Portugal;41,483947;-7,401857;West;S72;Mamoa do Castelo 1;Passage grave;Ua-19121;4560;65;n/a;n/a;n/a;n/a;n/a;Charcoal;Entrance area;TAQ;Sanches et al. 2005;n/a;Sanches et al. 2005,;n/a
508;Portugal;41,483947;-7,401857;West;S72;Mamoa do Castelo 1;Passage grave;CSIC-1818;5112;36;n/a;n/a;n/a;n/a;n/a;Charcoal;Under stones of tumulus;TPQ;Sanches et al. 2005;n/a;Sanches et al. 2005,;n/a
347;Spain;42,71342;-7,91185;Northwest;S73;Mamoa do Monte dos Marxos;Passage grave;CAMS-77925;4920;60;n/a;n/a;n/a;n/a;n/a;Charcoal;Painting with black charcoal;TPQ;Steelman et al. 2005, 385;n/a;Steelman et al. 2005, 385,;n/a
355;Spain;42,71342;-7,91185;Northwest;S73;Mamoa do Monte dos Marxos;Passage grave;CAMS-77924;5330;80;n/a;n/a;n/a;n/a;n/a;Charcoal;Painting with black charcoal;TPQ;Steelman et al. 2005, 385;n/a;Steelman et al. 2005, 385,;n/a
517;Portugal;41,190121;-8,025842;West;S74;Meninas do Crastro 2;Passage grave;CSIC-659a;5260;60;n/a;n/a;n/a;n/a;n/a;n/a;Burial ?;Indet.;Müller 1998, 82;Criado Borado/Fabregas Valcarce 1989, 685.;Müller 1998, 82,Criado Boado/Fabregas Valcarce 1989, 685.;n/a
518;Portugal;41,190121;-8,025842;West;S74;Meninas do Crastro 2;Passage grave;CSIC-658;5260;60;n/a;n/a;n/a;n/a;n/a;Charcoal;Burial ?;TPQ;Müller 1998, 82;Criado Borado/Fabregas Valcarce 1989, 685.;Müller 1998, 82,Criado Boado/Fabregas Valcarce 1989, 685.;n/a
519;Portugal;41,190121;-8,025842;West;S74;Meninas do Crastro 2;Passage grave;CSIC-656;5260;50;n/a;n/a;n/a;n/a;n/a;Charcoal;Burial ?;TPQ;Müller 1998, 82;Criado Borado/Fabregas Valcarce 1989, 685.;Müller 1998, 82,Criado Boado/Fabregas Valcarce 1989, 685.;n/a
520;Portugal;41,190121;-8,025842;West;S74;Meninas do Crastro 2;Passage grave;CSIC-657;5260;50;n/a;n/a;n/a;n/a;n/a;Charcoal;Burial ?;TPQ;Müller 1998, 82;Criado Borado/Fabregas Valcarce 1989, 685.;Müller 1998, 82,Criado Boado/Fabregas Valcarce 1989, 685.;n/a
470;Portugal;41,204521;-8,018665;West;S75;Meninas do Crastro 4;Passage grave;CSIC-660;3800;50;n/a;n/a;n/a;n/a;n/a;Charcoal;Burial ?;TAQ;Müller 1998, 82;Criado Borado/Fabregas Valcarce 1989, 685.;Müller 1998, 82,Criado Boado/Fabregas Valcarce 1989, 685.;n/a
472;Portugal;41,204521;-8,018665;West;S75;Meninas do Crastro 4;Passage grave;CSIC-661;3830;50;n/a;n/a;n/a;n/a;n/a;Charcoal;Burial ?;TPQ;Müller 1998, 82;Criado Borado/Fabregas Valcarce 1989, 685.;Müller 1998, 82,Criado Boado/Fabregas Valcarce 1989, 685.;n/a
482;Portugal;41,204521;-8,018665;West;S75;Meninas do Crastro 4;Passage grave;GaK-10943;4220;140;n/a;n/a;n/a;n/a;n/a;Charcoal;Ancient soil;TPQ;Cruz 1995;n/a;Cruz 1995,;n/a
361;Portugal;38,767447;-9,264708;Southwest;S76;Monte Abraão;Dolmen;Beta-228579;4040;40;-20,7;n/a;n/a;n/a;n/a;Human bone;Chamber;TAQ;Boaventura 2009, Tab.22;n/a;Boaventura 2009, Tab.22,;n/a
364;Portugal;38,767447;-9,264708;Southwest;S76;Monte Abraão;Dolmen;Beta-228580;4180;40;-19,96;8,25;1;3;n/a;Human bone;Chamber;TAQ;Boaventura 2009, Tab.22;n/a;"Boaventura 2009, Tab.22; Carvalho, Petchey 2013";n/a
164;Spain;43,533596;-5,764043;North;S77;Monte Areo V;Dolmen;UtC-9320;5239;43;n/a;n/a;n/a;n/a;n/a;Charcoal;n/a;n/a;http://www.idearqueologia.org/c14/?ln=es#fila-tabla;n/a;http://www.idearqueologia.org/c14/?ln=es#fila-tabla;n/a
167;Spain;43,533596;-5,764043;North;S77;Monte Areo V;Dolmen;GrN-22027;5330;50;n/a;n/a;n/a;n/a;n/a;Charcoal;n/a;Indet.;Arias Cabal et.al.2000, 131;de Blas 1999;Arias Cabal et.al.2000, 131,de Blas 1999;n/a
171;Spain;43,533596;-5,764043;North;S77;Monte Areo V;Dolmen;GrN-22026;5470;90;n/a;n/a;n/a;n/a;n/a;Charcoal;n/a;Indet.;Arias Cabal et.al.2000, 131;de Blas 1999;Arias Cabal et.al.2000, 131,de Blas 1999;n/a
162;Spain;43,526959;-5,77977;North;S78;Monte Areo XII;Tumulus;CSIC-1380;5133;30;n/a;n/a;n/a;n/a;n/a;Organic material, seeds and wood;n/a;Indet.;Arias Cabal et.al.2000, 131;de Blas 1999;Arias Cabal et.al.2000, 131,de Blas 1999;Geographic coordinates approximated
163;Spain;43,526959;-5,77977;North;S78;Monte Areo XII;Tumulus;CSIC-1378;5176;30;n/a;n/a;n/a;n/a;n/a;Organic material, seeds and wood;n/a;Indet.;Arias Cabal et.al.2000, 131;de Blas 1999;Arias Cabal et.al.2000, 131,de Blas 1999;Geographic coordinates approximated
165;Spain;43,526959;-5,77977;North;S78;Monte Areo XII;Tumulus;CSIC-1379;5261;31;n/a;n/a;n/a;n/a;n/a;Organic material, seeds and wood;n/a;Indet.;Arias Cabal et.al.2000, 131;de Blas 1999;Arias Cabal et.al.2000, 131,de Blas 1999;Geographic coordinates approximated
166;Spain;43,526959;-5,77977;North;S78;Monte Areo XII;Tumulus;UtC-7220;5284;42;n/a;n/a;n/a;n/a;n/a;Organic material, seeds and wood;n/a;Indet.;Arias Cabal et.al.2000, 131;de Blas 1999;Arias Cabal et.al.2000, 131,de Blas 1999;Geographic coordinates approximated
168;Spain;43,526959;-5,77977;North;S78;Monte Areo XII;Tumulus;UtC-7217;5368;44;n/a;n/a;n/a;n/a;n/a;Organic material, seeds and wood;n/a;Indet.;Arias Cabal et.al.2000, 131;de Blas 1999;Arias Cabal et.al.2000, 131,de Blas 1999;Geographic coordinates approximated
169;Spain;43,526959;-5,77977;North;S78;Monte Areo XII;Tumulus;UtC-7219;5368;42;n/a;n/a;n/a;n/a;n/a;Organic material, seeds and wood;n/a;Indet.;Arias Cabal et.al.2000, 131;de Blas 1999;Arias Cabal et.al.2000, 131,de Blas 1999;Geographic coordinates approximated
170;Spain;43,526959;-5,77977;North;S78;Monte Areo XII;Tumulus;UtC-7218;5404;41;n/a;n/a;n/a;n/a;n/a;Organic material, seeds and wood;n/a;Indet.;Arias Cabal et.al.2000, 131;de Blas 1999;Arias Cabal et.al.2000, 131,de Blas 1999;Geographic coordinates approximated
158;Spain;43,525103;-5,789087;North;S79;Monte Areo XV;Tumulus;GrN-22025;4850;40;n/a;n/a;n/a;n/a;n/a;Charcoal;n/a;Indet.;Arias Cabal et.al.2000, 131;de Blas 1999;Arias Cabal et.al.2000, 131,de Blas 1999;n/a
159;Spain;43,525103;-5,789087;North;S79;Monte Areo XV;Tumulus;GrN-19724;5040;70;n/a;n/a;n/a;n/a;n/a;Charcoal;n/a;Indet.;Arias Cabal et.al.2000, 131;de Blas 1999;Arias Cabal et.al.2000, 131,de Blas 1999;n/a
30;Portugal;37,20637;-8,593535;Southwest;S80;Monte Canelas 1;Hypogeum;OxA-5514;4370;60;n/a;n/a;n/a;n/a;n/a;Human bone;Chamber;TAQ;Morán/Parreira 2007;n/a;Morán/Parreira 2007,;n/a
31;Portugal;37,20637;-8,593535;Southwest;S80;Monte Canelas 1;Hypogeum;OxA-5515;4420;60;n/a;n/a;n/a;n/a;n/a;Human bone;Chamber;TAQ;Morán/Parreira 2007;n/a;Morán/Parreira 2007,;n/a
510;Portugal;41,2;-8,03;West;S81;Monte da Olheira;Passage grave;GrN-15330;5195;25;n/a;n/a;n/a;n/a;n/a;Charcoal;Ancient soil;TPQ;Cruz 1995;n/a;Cruz 1995,;n/a
523;Portugal;41,2;-8,03;West;S81;Monte da Olheira;Passage grave;GrN-15331;5400;40;n/a;n/a;n/a;n/a;n/a;n/a;Hearth;TPQ;Müller 1998, 82;Criado Borado/Fabegras Valcarce 1989, 685.;Müller 1998, 82,Criado Borado/Fabegras Valcarce 1989, 685.;n/a
530;Portugal;41,2;-8,03;West;S81;Monte da Olheira;Passage grave;UGRA-287;5630;90;n/a;n/a;n/a;n/a;n/a;n/a;Hearth;TPQ;Müller 1998, 82;Criado Borado/Fabegras Valcarce 1989, 685.;Müller 1998, 82,Criado Borado/Fabegras Valcarce 1989, 685.;n/a
332;Spain;42,65211613;-8,12954953;Northwest;S82;Monte da Romea;Megalithic grave;Ua-20003;4265;50;n/a;n/a;n/a;n/a;n/a;Charcoal;Debris tumulus, entrance area;Indet./TPQ?;Mañana Borrazas 2003;n/a;Mañana Borrazas 2003,;n/a
342;Spain;42,65211613;-8,12954953;Northwest;S82;Monte da Romea;Megalithic grave;Ua-20004;4520;50;n/a;n/a;n/a;n/a;n/a;Charcoal;By last stone deposit, blocking the entrance;TAQ;Mañana Borrazas 2003;n/a;Mañana Borrazas 2003,;n/a
352;Spain;42,65211613;-8,12954953;Northwest;S82;Monte da Romea;Megalithic grave;Ua-20005;5055;55;n/a;n/a;n/a;n/a;n/a;Charcoal;Debris tumulus;TPQ;Mañana Borrazas 2003;n/a;Mañana Borrazas 2003,;n/a
531;Portugal;41,144419;-8,085116;West;S83;Monte Maninho;Passage grave;CSIC-755;5680;80;n/a;n/a;n/a;n/a;n/a;Charcoal;Under tumulus;TPQ;Cruz 1995;n/a;Cruz 1995,;n/a
533;Portugal;41,144419;-8,085116;West;S83;Monte Maninho;Passage grave;GrN-15569;5805;40;n/a;n/a;n/a;n/a;n/a;Charcoal;Under tumulus;TPQ;Cruz 1995;n/a;Cruz 1995,;n/a
394;Spain;39,89721639;4,18998256;East;S84;Montplé;Dolmen;OxA-5810;3280;65;n/a;n/a;n/a;n/a;n/a;Human bone;Chamber;TAQ;Micó Pérez 2005, 229;n/a;Micó Pérez 2005, 229,;n/a
402;Spain;39,89721639;4,18998256;East;S84;Montplé;Dolmen;OxA-5807;3405;60;n/a;n/a;n/a;n/a;n/a;Human bone;Chamber;TAQ;Micó Pérez 2005, 229;n/a;Micó Pérez 2005, 229,;n/a
403;Spain;39,89721639;4,18998256;East;S84;Montplé;Dolmen;OxA-5808;3410;60;n/a;n/a;n/a;n/a;n/a;Human bone;Chamber;TAQ;Micó Pérez 2005, 228;n/a;Micó Pérez 2005, 228,;n/a
404;Spain;39,89721639;4,18998256;East;S84;Montplé;Dolmen;OxA-5806;3415;75;n/a;n/a;n/a;n/a;n/a;Human bone;Chamber;TAQ;Micó Pérez 2005, 228;n/a;Micó Pérez 2005, 228,;n/a
405;Spain;39,89721639;4,18998256;East;S84;Montplé;Dolmen;OxA-5811;3425;65;n/a;n/a;n/a;n/a;n/a;Human bone;Chamber;TAQ;Micó Pérez 2005, 226;n/a;Micó Pérez 2005, 226,;n/a
406;Spain;39,89721639;4,18998256;East;S84;Montplé;Dolmen;IRPA-1183;3435;35;n/a;n/a;n/a;n/a;n/a;Human bone;Chamber;TAQ;Micó Pérez 2005, 227;n/a;Micó Pérez 2005, 227,;n/a
407;Spain;39,89721639;4,18998256;East;S84;Montplé;Dolmen;OxA-5809;3460;65;n/a;n/a;n/a;n/a;n/a;Human bone;Chamber;TAQ;Micó Pérez 2005, 226;n/a;Micó Pérez 2005, 226,;n/a
12;Portugal;38,451544;-7,398876;Southwest;S85;Olival da Pega 2;Passage grave/tholos;ICEN-957;4130;60;n/a;n/a;n/a;n/a;n/a;Human bone;Chamber/depot 5/7;TAQ;Soares 1999;n/a;Soares 1999,;n/a
14;Portugal;38,451544;-7,398876;Southwest;S85;Olival da Pega 2;Passage grave/tholos;ICEN-956;4180;80;n/a;n/a;n/a;n/a;n/a;Human bone;Chamber/depot 7/7;TAQ;Soares 1999;n/a;Soares 1999,;n/a
17;Portugal;38,451544;-7,398876;Southwest;S85;Olival da Pega 2;Passage grave/tholos;ICEN-955;4290;100;n/a;n/a;n/a;n/a;n/a;Human bone;Chamber/depot 6/7;TAQ;Soares 1999;n/a;Soares 1999,;n/a
212;Portugal;40,49788;-8,025223;West;S86;Orca 1 da Penela;Dolmen;GrA-9256;4320;50;n/a;n/a;n/a;n/a;n/a;Human bone;Ground level chamber;TAQ;Cruz et al 2003;n/a;Cruz et al 2003,;n/a
213;Portugal;40,49788;-8,025223;West;S86;Orca 1 da Penela;Dolmen;GrN-9578;4400;50;n/a;n/a;n/a;n/a;n/a;Human bone;Ground level chamber;TAQ;Cruz et al 2003;n/a;Cruz et al 2003,;n/a
215;Portugal;40,49788;-8,025223;West;S86;Orca 1 da Penela;Dolmen;GrN-23064;4590;60;n/a;n/a;n/a;n/a;n/a;Human bone;Ground level chamber;TAQ;Cruz et al 2003;n/a;Cruz et al 2003,;n/a
229;Portugal;40,49788;-8,025223;West;S86;Orca 1 da Penela;Dolmen;GrA-14767;4990;40;n/a;n/a;n/a;n/a;n/a;Charcoal;Atrium;Indet.;Cruz et al 2003;n/a;Cruz et al 2003,;n/a
184;Portugal;40,83476;-7,75547;West;S87;Orca das Castenairas;Passage grave;OxA-7436;3365;45;n/a;n/a;n/a;n/a;n/a;Charcoal;Atrium, late phase;TAQ;Senna-Martinez/Ventura 2008,333;n/a;Senna-Martinez/Ventura 2008,333,;n/a
185;Portugal;40,83476;-7,75547;West;S87;Orca das Castenairas;Passage grave;OxA-7435;4365;50;n/a;n/a;n/a;n/a;n/a;Charcoal;Atrium;TAQ;Senna-Martinez/Ventura 2008,333;n/a;Senna-Martinez/Ventura 2008,333,;n/a
186;Portugal;40,83476;-7,75547;West;S87;Orca das Castenairas;Passage grave;GrA-9313;4380;50;n/a;n/a;n/a;n/a;n/a;Charcoal;Atrium;TAQ;Senna-Martinez/Ventura 2008,333;n/a;Senna-Martinez/Ventura 2008,333,;n/a
187;Portugal;40,83476;-7,75547;West;S87;Orca das Castenairas;Passage grave;GrA-9308;4440;50;n/a;n/a;n/a;n/a;n/a;Charcoal;Corridor;TAQ;Senna-Martinez/Ventura 2008,333;n/a;Senna-Martinez/Ventura 2008,333,;n/a
188;Portugal;40,83476;-7,75547;West;S87;Orca das Castenairas;Passage grave;OxA-7434;4470;45;n/a;n/a;n/a;n/a;n/a;Charcoal;Corridor;TAQ;Senna-Martinez/Ventura 2008,333;n/a;Senna-Martinez/Ventura 2008,333,;n/a
189;Portugal;40,83476;-7,75547;West;S87;Orca das Castenairas;Passage grave;OxA-7432;4510;45;n/a;n/a;n/a;n/a;n/a;Charcoal;Corridor;TAQ;Senna-Martinez/Ventura 2008,333;n/a;Senna-Martinez/Ventura 2008,333,;n/a
190;Portugal;40,83476;-7,75547;West;S87;Orca das Castenairas;Passage grave;GrA-9312;4520;50;n/a;n/a;n/a;n/a;n/a;Charcoal;Atrium;TAQ;Senna-Martinez/Ventura 2008,333;n/a;Senna-Martinez/Ventura 2008,333,;n/a
191;Portugal;40,83476;-7,75547;West;S87;Orca das Castenairas;Passage grave;GrA-9307;4540;50;n/a;n/a;n/a;n/a;n/a;Charcoal;Corridor;TAQ;Senna-Martinez/Ventura 2008,333;n/a;Senna-Martinez/Ventura 2008,333,;n/a
193;Portugal;40,83476;-7,75547;West;S87;Orca das Castenairas;Passage grave;GrN-4925;4610;50;n/a;n/a;n/a;n/a;n/a;Charcoal;Chamber;TAQ;Senna-Martinez/Ventura 2008, 333;Bueno Ramirez 1991, 113;Senna-Martinez/Ventura 2008, 333,Bueno Ramirez 1991, 113;n/a
195;Portugal;40,83476;-7,75547;West;S87;Orca das Castenairas;Passage grave;OxA-7433;4720;40;n/a;n/a;n/a;n/a;n/a;Charcoal;Corridor;Indet.;Senna-Martinez/Ventura 2008,333;n/a;Senna-Martinez/Ventura 2008,333,;n/a
197;Portugal;40,83476;-7,75547;West;S87;Orca das Castenairas;Passage grave;GrN-4924;5060;50;n/a;n/a;n/a;n/a;n/a;Charcoal;Basement chamber;TPQ;Senna-Martinez/Ventura 2008, 333;n/a;Senna-Martinez/Ventura 2008, 333,;n/a
206;Portugal;40,83476;-7,75547;West;S87;Orca das Castenairas;Passage grave;GrA-9314;3250;50;n/a;n/a;n/a;n/a;n/a;Charcoal;n/a;Indet.;Senna-Martinez/Ventura 2008,333;n/a;Senna-Martinez/Ventura 2008,333,;n/a
214;Portugal;40,9198;-7,721191;West;S88;Orca de Merouços;Passage grave;GrN-13687;4480;40;n/a;n/a;n/a;n/a;n/a;Charcoal;Atrium;TAQ;Cruz et al 2003;n/a;Cruz et al 2003,;n/a
220;Portugal;40,9198;-7,721191;West;S88;Orca de Merouços;Passage grave;GrN-14770;4910;40;n/a;n/a;n/a;n/a;n/a;Charcoal;Atrium;Indet.;Cruz et al 2003;n/a;Cruz et al 2003,;n/a
224;Portugal;40,9198;-7,721191;West;S88;Orca de Merouços;Passage grave;GrN-14765;4960;40;n/a;n/a;n/a;n/a;n/a;Charcoal;Atrium;Indet.;Cruz et al 2003;n/a;Cruz et al 2003,;n/a
227;Portugal;40,9198;-7,721191;West;S88;Orca de Merouços;Passage grave;GrA-14768;4980;40;n/a;n/a;n/a;n/a;n/a;Charcoal;Atrium;Indet.;Cruz et al 2003;n/a;Cruz et al 2003,;n/a
219;Portugal;40,945468;-7,686355;West;S89;Orca de Seixas;Passage grave;GrN-5734;4900;40;n/a;n/a;n/a;n/a;n/a;Charcoal;Chamber;TAQ;Müller 1998, 88;Kalb 1981, 73;Müller 1998, 88,Kalb 1981, 73;n/a
222;Portugal;40,945468;-7,686355;West;S89;Orca de Seixas;Passage grave;CSIC-1665;4938;34;n/a;n/a;n/a;n/a;n/a;Charcoal;Corridor;Indet.;Cruz et al. 2003;Corrected in Pardo-Gordó, Carvalho, 2020;Cruz et al. 2003,;n/a
223;Portugal;40,945468;-7,686355;West;S89;Orca de Seixas;Passage grave;CSIC-1664;4939;24;n/a;n/a;n/a;n/a;n/a;Charcoal;n/a;Indet.;Cruz et al. 2003;n/a;Cruz et al. 2003,;n/a
226;Portugal;40,945468;-7,686355;West;S89;Orca de Seixas;Passage grave;GrN-26225;4970;25;n/a;n/a;n/a;n/a;n/a;Charcoal;Funerary deposit. Under closure;n/a;Pardo-Gordó, Carvalho 2020;Cruz 1995;Pardo-Gordó, Carvalho 2020;n/a
233;Portugal;40,945468;-7,686355;West;S89;Orca de Seixas;Passage grave;GrN-26226;5045;25;n/a;n/a;n/a;n/a;n/a;Charcoal;Between cist structure in atrium;Construction/TAQ;Cruz et al. 2003;n/a;Cruz et al. 2003,;n/a
478;Portugal;41,19103;-8,034781;West;S90;Outeiro de Ante 3;Passage grave;Gif-4859;4090;120;n/a;n/a;n/a;n/a;n/a;Charcoal;Debris tumulus;TPQ;Cruz 1995;n/a;Cruz 1995,;n/a
490;Portugal;41,19103;-8,034781;West;S90;Outeiro de Ante 3;Passage grave;Gif-4856;4800;80;n/a;n/a;n/a;n/a;n/a;Charcoal;Debris tumulus;TPQ;Cruz 1995;n/a;Cruz 1995,;n/a
529;Portugal;41,19103;-8,034781;West;S90;Outeiro de Ante 3;Passage grave;Gif-4858;5540;90;n/a;n/a;n/a;n/a;n/a;Charcoal;Debris tumulus;TPQ;Cruz 1995;n/a;Cruz 1995,;n/a
532;Portugal;41,19103;-8,034781;West;S90;Outeiro de Ante 3;Passage grave;Gif-4857;5780;80;n/a;n/a;n/a;n/a;n/a;Charcoal;Debris tumulus;TPQ;Cruz 1995;n/a;Cruz 1995,;n/a
467;Portugal;41,188604;-8,041578;West;S91;Outeiro de Gregos 1;Passage grave;Csic-771;3360;50;n/a;n/a;n/a;n/a;n/a;n/a;Layer under peripheric structure;Indet.;Cassen 1993, 515;n/a;Cassen 1993, 515,;n/a
469;Portugal;41,188604;-8,041578;West;S91;Outeiro de Gregos 1;Passage grave;Csic-772;3620;50;n/a;n/a;n/a;n/a;n/a;n/a;Layer under peripheric structure;Indet.;Cassen 1993, 515;n/a;Cassen 1993, 515,;n/a
498;Portugal;41,185632;-8,040152;West;S92;Outeiro de Gregos 2;Passage grave;CSIC-547;4950;50;n/a;n/a;n/a;n/a;n/a;Charcoal;Top ancient soil;TPQ;Cruz 1995;n/a;Cruz 1995,;n/a
504;Portugal;41,185632;-8,040152;West;S92;Outeiro de Gregos 2;Passage grave;CSIC-774;5030;70;n/a;n/a;n/a;n/a;n/a;Charcoal;Ancient soil;TPQ;Cruz 1995;n/a;Cruz 1995,;n/a
527;Portugal;41,185632;-8,040152;West;S92;Outeiro de Gregos 2;Passage grave;KN-2768;5500;70;n/a;n/a;n/a;n/a;n/a;Charcoal;Debris tumulus;TPQ;Müller 1998, 82;n/a;Müller 1998, 82,;n/a
511;Portugal;41,181137;-8,049693;West;S93;Outeiro de Gregos 3;Passage grave;KN-2765;5200;65;n/a;n/a;n/a;n/a;n/a;Charcoal;Debris tumulus;TPQ;Müller 1998, 82;n/a;Müller 1998, 82,;n/a
514;Portugal;41,181137;-8,049693;West;S93;Outeiro de Gregos 3;Passage grave;KN-2766;5230;75;n/a;n/a;n/a;n/a;n/a;Charcoal;Debris tumulus;TPQ;Müller 1998, 82;n/a;Müller 1998, 82,;n/a
466;Portugal;41,185632;-8,040748;West;S94;Outeiro de Gregos 5;Passage grave;CSIC-773;3250;60;n/a;n/a;n/a;n/a;n/a;Charcoal;Layer under tumulus;TAQ;Cruz 1995;n/a;Cruz 1995,;n/a
488;Portugal;41,185632;-8,040748;West;S94;Outeiro de Gregos 5;Passage grave;CSIC-659;4780;60;n/a;n/a;n/a;n/a;n/a;Charcoal;Debris tumulus;TPQ;Cruz 1995;n/a;Cruz 1995,;n/a
44;Portugal;39,291617;-9,329161;Southwest;S95;Pai Mogo 1;Passage grave/tholos;Sac-1782;4100;60;-20.00;n/a;n/a;n/a;n/a;Human bone;Chamber;TAQ;Silva 2002;n/a;Silva 2002,;n/a
45;Portugal;39,291617;-9,329161;Southwest;S95;Pai Mogo 1;Passage grave/tholos;UBAR-539;4130;90;n/a;n/a;n/a;n/a;n/a;Human bone;Chamber;TAQ;Silva 2002;n/a;Silva 2002,;n/a
49;Portugal;39,291617;-9,329161;Southwest;S95;Pai Mogo 1;Passage grave/tholos;Sac-1556;4250;90;-20.4;n/a;n/a;n/a;n/a;Human bone;Chamber;TAQ;Boaventura 2009, Annex 3;n/a;Boaventura 2009, Annex 3,;n/a
88;Spain;37,36583333;-3,2975;South;S96;Panoria;Megalithic tomb;Beta-448207;3700;30;n/a;9,3;n/a;n/a;n/a;Human bone;Tomb 10. Funerary chamber. Left femur;n/a;Aranda Giménez et al. 2017, Tab 19;n/a;n/a;n/a
91;Spain;37,36583333;-3,2975;South;S96;Panoria;Megalithic tomb;ETH-69965;3718;17;-20,2;9,2;n/a;n/a;n/a;Human bone;Tomb 10. First section of passage. Left femur;n/a;Aranda Giménez et al. 2017, Tab 17;n/a;n/a;n/a
105;Spain;37,36583333;-3,2975;South;S96;Panoria;Megalithic tomb;ETH-71515;3886;23;-19,4;9;n/a;n/a;n/a;Human bone;Tomb 10. Funerary chamber. Left femur;n/a;Aranda Giménez et al. 2017, Tab 16;n/a;n/a;n/a
106;Spain;37,36583333;-3,2975;South;S96;Panoria;Megalithic tomb;SUERC-72324;3898;30;n/a;8;n/a;n/a;n/a;Human bone;Tomb 10. First section of passage. Fibula from a juvenile;n/a;Aranda Giménez et al. 2017, Tab 18;n/a;n/a;n/a
107;Spain;37,36583333;-3,2975;South;S96;Panoria;Megalithic tomb;ETH-69964;3899;24;-20,1;8,8;n/a;n/a;n/a;Human bone;Tomb 10. Funerary chamber. Left femur;n/a;Aranda Giménez et al. 2017, Tab 15;n/a;n/a;n/a
108;Spain;37,36583333;-3,2975;South;S96;Panoria;Megalithic tomb;Beta-448209;3910;30;n/a;9,9;n/a;n/a;n/a;Human bone;Tomb 7 funerary chamber. Left radius from an adult;n/a;Aranda Giménez et al. 2017, Tab 5;n/a;n/a;n/a
111;Spain;37,36583333;-3,2975;South;S96;Panoria;Megalithic tomb;ETH-69967;3941;24;-19;8,3;n/a;n/a;n/a;Human bone;Tomb 10. Funerary chamber. Left femur;n/a;Aranda Giménez et al. 2017, Tab 14;n/a;n/a;n/a
112;Spain;37,36583333;-3,2975;South;S96;Panoria;Megalithic tomb;EHT-69966;3942;24;-21,2;8;n/a;n/a;n/a;Human bone;Tomb 10. Funerary chamber. Left femur;n/a;Aranda Giménez et al. 2017, Tab 13;n/a;n/a;n/a
113;Spain;37,36583333;-3,2975;South;S96;Panoria;Megalithic tomb;ETH-69962;3945;24;-19,2;8,5;n/a;n/a;n/a;Human bone;Tomb 10. Second section of the passage. Left femur;n/a;Aranda Giménez et al. 2017, Tab 12;n/a;n/a;n/a
114;Spain;37,36583333;-3,2975;South;S96;Panoria;Megalithic tomb;ETH-69970;3954;24;-19,8;8,4;n/a;n/a;n/a;Human bone;Tomb 10. Funerary chamber. Left femur;n/a;Aranda Giménez et al. 2017, Tab 11;n/a;n/a;n/a
115;Spain;37,36583333;-3,2975;South;S96;Panoria;Megalithic tomb;ETH-69969;3959;24;-20,6;9;n/a;n/a;n/a;Human bone;Tomb 10. Funerary chamber. Left femur;n/a;Aranda Giménez et al. 2017, Tab 10;n/a;n/a;n/a
116;Spain;37,36583333;-3,2975;South;S96;Panoria;Megalithic tomb;ETH-71513;3959;26;-20,6;9,7;n/a;n/a;n/a;Human bone;Tomb 8. Funerary chamber (Phase I);n/a;Aranda Giménez et al. 2017, Tab 6;n/a;n/a;n/a
117;Spain;37,36583333;-3,2975;South;S96;Panoria;Megalithic tomb;ETH-69968;3980;24;-20,1;9;n/a;n/a;n/a;Human bone;Tomb 10. Chamber. Left femur;n/a;Aranda Giménez et al. 2017, Tab 9;n/a;n/a;n/a
118;Spain;37,36583333;-3,2975;South;S96;Panoria;Megalithic tomb;ETH-69963;3993;24;-19,6;8,2;n/a;n/a;n/a;Human bone;Tomb 10. Second section of the passage. Left femur;n/a;Aranda Giménez et al. 2017, Tab 8;n/a;n/a;n/a
121;Spain;37,36555556;-3,2975;South;S96;Panoria;Megalithic tomb;ETH-71514;4123;23;-20,4;9,1;n/a;n/a;n/a;Human bone;Tomb 18. Right humerus from an adult;n/a;Aranda Giménez et al. 2017, Tab 20;n/a;n/a;n/a
127;Spain;37,36583333;-3,2975;South;S96;Panoria;Megalithic tomb;SUERC-72323;4365;30;n/a;9,4;n/a;n/a;n/a;Human bone;Tomb 8. Funerary chamber (Phase I). Right femur from an adult;n/a;Aranda Giménez et al. 2017, Tab 7;n/a;n/a;n/a
131;Spain;37,36583333;-3,2975;South;S96;Panoria;Megalithic tomb;Beta-448208;4550;30;n/a;10,2;n/a;n/a;n/a;Human bone;Tomb 7 funerary chamber;n/a;Aranda Giménez et al. 2017, Tab 4;n/a;n/a;n/a
133;Spain;37,36583333;-3,2975;South;S96;Panoria;Megalithic tomb;ETH-69961;4608;25;-18,2;9,3;n/a;n/a;n/a;Human bone;Tomb 7 funerary chamber. Right humerus from an adult;n/a;Aranda Giménez et al. 2017, Tab 3;n/a;n/a;n/a
126;Spain;37,36583333;-3,297222222;South;S96;Panoria;Megalithic tomb;ETH-69960;4353;25;-19,8;9,7;n/a;n/a;n/a;Human bone;Tomb 6. Funerary chamber. Femur from an adult;n/a;Aranda Giménez et al. 2017, Tab 2;n/a;n/a;n/a
122;Spain;36,38611111;-5,7325;South;S97;Paraje de Monte Bajo;Passage grave;Beta-233955;4210;40;-24;n/a;n/a;n/a;n/a;Charcoal;Tomb 4;TAQ;García Sanjuán  et al. 2011, Tab. 3;n/a;García Sanjuán  et al. 2011, Tab. 3,;n/a
123;Spain;36,38611111;-5,7325;South;S97;Paraje de Monte Bajo;Passage grave;Beta-233956;4220;40;-25,1;n/a;n/a;n/a;n/a;Charcoal;Tomb 4;Indet.;García Sanjuán  et al. 2011, Tab. 3;n/a;García Sanjuán  et al. 2011, Tab. 3,;n/a
129;Spain;36,38611111;-5,7325;South;S97;Paraje de Monte Bajo;Cave;Beta-233952;4450;40;-25,4;n/a;n/a;n/a;n/a;Charcoal;Artificial cave;n/a;http://www.idearqueologia.org/c14/?ln=es#fila-tabla;n/a;n/a;n/a
130;Spain;36,38611111;-5,7325;South;S97;Paraje de Monte Bajo;Cave;Beta-233951;4480;40;-25,3;n/a;n/a;n/a;n/a;Charcoal;Artificial cave;n/a;http://www.idearqueologia.org/c14/?ln=es#fila-tabla;n/a;n/a;n/a
21;Portugal;38,1129;-8,7242;Southwest;S98;Pedra Branca;Megalithic grave;ICEN-1040;4620;60;n/a;n/a;n/a;n/a;n/a;Human bone;Chamber;n/a;Pardo-Gordó, Carvalho 2020;Soares, 2010;Pardo-Gordó, Carvalho 2020;n/a
22;Portugal;38,1129;-8,7242;Southwest;S98;Pedra Branca;Megalithic grave;ICEN-1041;4620;60;n/a;n/a;n/a;n/a;n/a;Human bone;Passage;n/a;Pardo-Gordó, Carvalho 2020;Soares, 2010;Pardo-Gordó, Carvalho 2020;n/a
27;Portugal;37,071176;-8,917967;Southwest;S99;Pedra Escorregadia;Megalithic grave;ICEN-1028;3800;100;-19.68;n/a;n/a;n/a;n/a;Human bone;Chamber;TAQ;Gomes et al. 1994, 13C;n/a;Gomes et al. 1994, 13C,;n/a
29;Portugal;37,071176;-8,917967;Southwest;S99;Pedra Escorregadia;Megalithic grave;ICEN-844;4060;70;-19.44;n/a;n/a;n/a;n/a;Human bone;Chamber;TAQ;Gomes et al. 1994, 13C;n/a;Gomes et al. 1994, 13C,;n/a
372;Portugal;38,806707;-9,218636;Southwest;S100;Pedras Grandes;Dolmen;Beta-234136;4530;40;-19,57;8,58;5;6;n/a;Human bone;Chamber;TAQ;Boaventura 2009, Tab.22;n/a;"Boaventura 2009, Tab.22; Carvalho, Petchey 2013";n/a
373;Portugal;38,806707;-9,218636;Southwest;S100;Pedras Grandes;Dolmen;Beta-205946;4590;40;-19,86;8,37;2;4;n/a;Human bone;Chamber;TAQ;Boaventura 2009, Tab.22;n/a;"Boaventura 2009, Tab.22; Carvalho, Petchey 2013";n/a
413;Spain;42,32527778;-2,453611111;North;S101;Peña Guerra 2;Megalithic grave;CSIC-617B;3410;60;n/a;n/a;n/a;n/a;n/a;Human bone;Central chamber, level II;n/a;IDEArq.org;n/a;n/a;n/a
432;Spain;42,32527778;-2,453611111;North;S101;Peña Guerra 2;Megalithic grave;CSIC-626A;4630;90;n/a;n/a;n/a;n/a;n/a;Human bone;Central chamber, level I;n/a;IDEArq.org;n/a;n/a;n/a
435;Spain;42,32527778;-2,453611111;North;S101;Peña Guerra 2;Megalithic grave;CSIC-626B;4640;60;n/a;n/a;n/a;n/a;n/a;Human bone;Chamber, level I;TAQ;Boaventura 2009, annex 33;Lopez de Calle/Llarraza 1997;Boaventura 2009, annex 33,Lopez de Calle/Llarraza 1997;n/a
443;Spain;42,32527778;-2,453611111;North;S101;Peña Guerra 2;Megalithic grave;CSIC-969;4750;30;n/a;n/a;n/a;n/a;n/a;Human bone;Chamber;TAQ;Boaventura 2009, annex 33;Lopez de Calle/Llarraza 1997;Boaventura 2009, annex 33,Lopez de Calle/Llarraza 1997;n/a
412;Spain;42,32527778;-2,453611111;North;S101;Peña Guerra 2;Megalithic grave;CSIC-617B;3410;60;n/a;n/a;n/a;n/a;n/a;Human bone;Central chamber, level II;n/a;IDEArq.org;n/a;n/a;n/a
431;Spain;42,32527778;-2,453611111;North;S101;Peña Guerra 2;Megalithic grave;CSIC-626A;4630;90;n/a;n/a;n/a;n/a;n/a;Human bone;Central chamber, level I;n/a;IDEArq.org;n/a;n/a;n/a
433;Spain;42,32527778;-2,453611111;North;S101;Peña Guerra 2;Megalithic grave;CSIC-626B;4640;60;n/a;n/a;n/a;n/a;n/a;Human bone;Chamber, level I;TAQ;Boaventura 2009, annex 33;Lopez de Calle/Llarraza 1997;Boaventura 2009, annex 33,Lopez de Calle/Llarraza 1997;n/a
434;Spain;42,32527778;-2,453611111;North;S101;Peña Guerra 2;Megalithic grave;CSIC-626B;4640;60;n/a;n/a;n/a;n/a;n/a;Human bone;Chamber, level I;TAQ;Boaventura 2009, annex 33;Lopez de Calle/Llarraza 1997;Boaventura 2009, annex 33,Lopez de Calle/Llarraza 1997;n/a
441;Spain;42,32527778;-2,453611111;North;S101;Peña Guerra 2;Megalithic grave;CSIC-969;4750;30;n/a;n/a;n/a;n/a;n/a;Human bone;Chamber;TAQ;Boaventura 2009, annex 33;Lopez de Calle/Llarraza 1997;Boaventura 2009, annex 33,Lopez de Calle/Llarraza 1997;n/a
442;Spain;42,32527778;-2,453611111;North;S101;Peña Guerra 2;Megalithic grave;CSIC-969;4750;30;n/a;n/a;n/a;n/a;n/a;Human bone;Chamber;TAQ;Boaventura 2009, annex 33;Lopez de Calle/Llarraza 1997;Boaventura 2009, annex 33,Lopez de Calle/Llarraza 1997;n/a
208;Portugal;40,901576;-7,809244;West;S102;Picoto do Vasco;Passage grave;GrN-22816;3690;130;n/a;n/a;n/a;n/a;n/a;Charcoal;Basement atrium;Indet./TPQ?;Cruz et al. 2003;n/a;Cruz et al. 2003,;n/a
217;Portugal;40,901576;-7,809244;West;S102;Picoto do Vasco;Passage grave;GrN-22815;4670;150;n/a;n/a;n/a;n/a;n/a;Charcoal;Corridor;Indet.;Cruz et al. 2003;n/a;Cruz et al. 2003,;n/a
221;Portugal;40,901576;-7,809244;West;S102;Picoto do Vasco;Passage grave;OxA-6910;4930;60;n/a;n/a;n/a;n/a;n/a;Charcoal;Corridor;Indet.;Cruz et al. 2003;n/a;Cruz et al. 2003,;n/a
228;Portugal;40,901576;-7,809244;West;S102;Picoto do Vasco;Passage grave;CSIC-1199;4988;31;n/a;n/a;n/a;n/a;n/a;Charcoal;Basement corridor;TPQ;Cruz et al. 2003;n/a;Cruz et al. 2003,;n/a
236;Portugal;40,901576;-7,809244;West;S102;Picoto do Vasco;Passage grave;GrN-22817;5100;60;n/a;n/a;n/a;n/a;n/a;Charcoal;Basement corridor;TPQ;Cruz et al. 2003;n/a;Cruz et al. 2003,;n/a
238;Portugal;40,901576;-7,809244;West;S102;Picoto do Vasco;Passage grave;CSIC-1328;5124;30;n/a;n/a;n/a;n/a;n/a;Charcoal;Entrance chamber;Indet.;Cruz et al. 2003;n/a;Cruz et al. 2003,;n/a
241;Portugal;40,901576;-7,809244;West;S102;Picoto do Vasco;Passage grave;GrN-22443;5140;40;n/a;n/a;n/a;n/a;n/a;Charcoal;Basement corridor;TPQ;Cruz et al. 2003;n/a;Cruz et al. 2003,;n/a
242;Portugal;40,901576;-7,809244;West;S102;Picoto do Vasco;Passage grave;CSIC-1221;5160;42;n/a;n/a;n/a;n/a;n/a;Charcoal;Basement corridor;TPQ;Cruz et al. 2003;n/a;Cruz et al. 2003,;n/a
235;Portugal;42,073233;-8,106304;Northwest;S103;Portela do Pau 2;Dolmen;CSIC-1119;5087;31;n/a;n/a;n/a;n/a;n/a;Charcoal;n/a;Indet.;Boaventura 2009, annex 3;n/a;Boaventura 2009, annex 3,;n/a
240;Portugal;42,073233;-8,106304;Northwest;S103;Portela do Pau 2;Dolmen;CSIC-1120;5131;28;n/a;n/a;n/a;n/a;n/a;Charcoal;n/a;Indet.;Boaventura 2009, annex 3;n/a;Boaventura 2009, annex 3,;n/a
245;Portugal;42,073233;-8,106304;Northwest;S103;Portela do Pau 2;Dolmen;CSIC-1121;5435;44;n/a;n/a;n/a;n/a;n/a;Charcoal;n/a;Indet.;Boaventura 2009, annex 3;n/a;Boaventura 2009, annex 3,;n/a
366;Portugal;38,8263;-9,466346;Southwest;S104;Praia das Maças;Passage grave/tholos;H-2049;4260;60;n/a;n/a;n/a;n/a;n/a;Charcoal;Chamber;TAQ;Soares e Cabral 1984;n/a;Soares e Cabral 1984,;n/a
370;Portugal;38,8263;-9,466346;Southwest;S104;Praia das Maças;Passage grave/tholos;OxA-5510;4395;60;n/a;n/a;n/a;n/a;n/a;Animal bone;Chamber, bone needle associated to schiffer plate;TAQ;Cardoso e Soares 1995;n/a;Cardoso e Soares 1995,;n/a
371;Portugal;38,8263;-9,466346;Southwest;S104;Praia das Maças;Passage grave/tholos;OxA-5509;4410;75;n/a;n/a;n/a;n/a;n/a;Animal bone;Chamber, bone needle associated to schiffer plate;TAQ;Cardoso e Soares 1995;n/a;Cardoso e Soares 1995,;n/a
446;Spain;42,67527778;-3,720555556;North;S105;Rebolledo;Megalithic grave;GrN-19567;5075;40;n/a;n/a;n/a;n/a;n/a;Charcoal;Layer 3;TAQ;Boaventura 2009, annex 33;Delibes de Castro/Rojo Guerra 1997 ;Boaventura 2009, annex 33,Delibes de Castro/Rojo Guerra 1997 ;Coord. Aprox.
447;Spain;42,67527778;-3,720555556;North;S105;Rebolledo;Megalithic grave;GrN-19567;5075;40;n/a;n/a;n/a;n/a;n/a;Charcoal;Layer 3;TAQ;Boaventura 2009, annex 33;Delibes de Castro/Rojo Guerra 1997 ;Boaventura 2009, annex 33,Delibes de Castro/Rojo Guerra 1997 ;Coord. Aprox.
461;Spain;42,67527778;-3,720555556;North;S105;Rebolledo;Megalithic grave;GrN-19569;5305;30;n/a;n/a;n/a;n/a;n/a;Organic material, seeds and wood;Burial, level 1/2;TAQ;Boaventura 2009, annex 33;Delibes de Castro/Rojo Guerra 1997 ;Boaventura 2009, annex 33,Delibes de Castro/Rojo Guerra 1997 ;Coord. Aprox.
462;Spain;42,67527778;-3,720555556;North;S105;Rebolledo;Megalithic grave;GrN-19569;5305;30;n/a;n/a;n/a;n/a;n/a;Organic material, seeds and wood;Burial, level 1/2;TAQ;Boaventura 2009, annex 33;Delibes de Castro/Rojo Guerra 1997 ;Boaventura 2009, annex 33,Delibes de Castro/Rojo Guerra 1997 ;Coord. Aprox.
448;Spain;42,67527778;-3,720555556;North;S105;Rebolledo;Megalithic grave;GrN-19567;5075;40;n/a;n/a;n/a;n/a;n/a;Charcoal;Layer 3;TAQ;Boaventura 2009, annex 33;Delibes de Castro/Rojo Guerra 1997 ;Boaventura 2009, annex 33,Delibes de Castro/Rojo Guerra 1997 ;Coord. Aprox.
463;Spain;42,67527778;-3,720555556;North;S105;Rebolledo;Megalithic grave;GrN-19569;5305;30;n/a;n/a;n/a;n/a;n/a;Organic material, seeds and wood;Burial, level 1/2;TAQ;Boaventura 2009, annex 33;Delibes de Castro/Rojo Guerra 1997 ;Boaventura 2009, annex 33,Delibes de Castro/Rojo Guerra 1997 ;Coord. Aprox.
41;Portugal;39,765558;-8,368033;West;S106;Rego da Murta 1;Passage grave;Beta-189999;3510;40;-20.30;n/a;n/a;n/a;n/a;Human bone;Chamber;TAQ;Figueiredo 2006;n/a;Figueiredo 2006,;n/a
42;Portugal;39,765558;-8,368033;West;S106;Rego da Murta 1;Passage grave;Beta-190000;3640;40;-20,7;n/a;n/a;n/a;n/a;Human bone;Chamber;TAQ;Figueiredo 2006;n/a;Figueiredo 2006,;n/a
51;Portugal;39,765558;-8,368033;West;S106;Rego da Murta 1;Passage grave;Beta-190002;4370;40;-19.50;n/a;n/a;n/a;n/a;Human bone;Chamber;TAQ;Figueiredo 2006;n/a;Figueiredo 2006,;n/a
53;Portugal;39,765558;-8,368033;West;S106;Rego da Murta 1;Passage grave;Beta-190003;4400;40;-19.30;n/a;n/a;n/a;n/a;Human bone;Chamber;TAQ;Figueiredo 2006;n/a;Figueiredo 2006,;n/a
55;Portugal;39,765558;-8,368033;West;S106;Rego da Murta 1;Passage grave;Beta-189998;4490;60;-19.90;n/a;n/a;n/a;n/a;Human bone;Chamber;TAQ;Figueiredo 2006;n/a;Figueiredo 2006,;n/a
56;Portugal;39,765558;-8,368033;West;S106;Rego da Murta 1;Passage grave;Beta-190001;4520;40;-20.00;n/a;n/a;n/a;n/a;Human bone;Chamber;TAQ;Figueiredo 2006;n/a;Figueiredo 2006,;n/a
43;Portugal;39,763397;-8,367676;West;S107;Rego da Murta 2;Passage grave;Beta-190008;4060;50;-19.80;n/a;n/a;n/a;n/a;Human bone;Chamber;TAQ;Figueiredo 2006;n/a;Figueiredo 2006,;n/a
46;Portugal;39,763397;-8,367676;West;S107;Rego da Murta 2;Passage grave;Beta-190007;4190;40;-19.80;n/a;n/a;n/a;n/a;Human bone;Chamber;TAQ;Figueiredo 2006;n/a;Figueiredo 2006,;n/a
50;Portugal;39,763397;-8,367676;West;S107;Rego da Murta 2;Passage grave;Beta-190004;4290;40;n/a;n/a;n/a;n/a;n/a;Human bone;Chamber;TAQ;Figueiredo 2006;n/a;Figueiredo 2006,;n/a
375;Spain;39,750018;3,303303;East;S108;S´Aigua Dolca;Dolmen;UtC-4739;3365;30;n/a;n/a;n/a;n/a;n/a;Human bone;Chamber;TAQ;Mico Pérez 2005, 255;n/a;Mico Pérez 2005, 255,;n/a
377;Spain;39,750018;3,303303;East;S108;S´Aigua Dolca;Dolmen;UtC-4736;3380;40;n/a;n/a;n/a;n/a;n/a;Human bone;Chamber;TAQ;Mico Pérez 2005, 255;n/a;Mico Pérez 2005, 255,;n/a
378;Spain;39,750018;3,303303;East;S108;S´Aigua Dolca;Dolmen;KIA-15224;3420;30;n/a;n/a;n/a;n/a;n/a;Human bone;Chamber;TAQ;Mico Pérez 2005, 254;n/a;Mico Pérez 2005, 254,;n/a
379;Spain;39,750018;3,303303;East;S108;S´Aigua Dolca;Dolmen;UtC-4744;3460;40;n/a;n/a;n/a;n/a;n/a;Human bone;Chamber;TAQ;Micó Pérez  2005, 254;n/a;Micó Pérez  2005, 254,;n/a
382;Spain;39,750018;3,303303;East;S108;S´Aigua Dolca;Dolmen;KIA-15223;3485;40;n/a;n/a;n/a;n/a;n/a;Human bone;Chamber;TAQ;Micó Pérez  2005, 253;n/a;Micó Pérez  2005, 253,;n/a
3;Portugal;38,4495;-7,4846;Southwest;S109;Santa Margarida 3;Passage grave;Beta-166420;3720;50;-20.5;n/a;n/a;n/a;n/a;Human bone;Chamber;TAQ;Gonçalvez 2003;n/a;Gonçalvez 2003,;n/a
5;Portugal;38,4351422;-7,44191726;Southwest;S109;Santa Margarida 3;Passage grave;Beta-166421;3730;40;-20,6;n/a;n/a;n/a;n/a;Human bone;Chamber;TAQ;Gonçalvez 2003;n/a;Gonçalvez 2003,;n/a
6;Portugal;38,4351422;-7,44191726;Southwest;S109;Santa Margarida 3;Passage grave;Beta-166417;3770;40;-19.2;n/a;n/a;n/a;n/a;Human bone;Chamber;TAQ;Gonçalvez 2003;n/a;Gonçalvez 2003,;n/a
7;Portugal;38,4351422;-7,44191726;Southwest;S109;Santa Margarida 3;Passage grave;Beta-166418;3780;40;-19.0;n/a;n/a;n/a;n/a;Human bone;Chamber;TAQ;Gonçalvez 2003;n/a;Gonçalvez 2003,;n/a
11;Portugal;38,4351422;-7,44191726;Southwest;S109;Santa Margarida 3;Passage grave;Beta-166423;4100;40;-20.5;n/a;n/a;n/a;n/a;Human bone;Chamber;TAQ;Gonçalvez 2003;n/a;Gonçalvez 2003,;n/a
13;Portugal;38,4351422;-7,44191726;Southwest;S109;Santa Margarida 3;Passage grave;Beta-176896;4170;40;-20.2;n/a;n/a;n/a;n/a;Human bone;Chamber;TAQ;Gonçalvez 2003;n/a;Gonçalvez 2003,;n/a
15;Portugal;38,4351422;-7,44191726;Southwest;S109;Santa Margarida 3;Passage grave;Beta-166416;4270;40;-19.80;n/a;n/a;n/a;n/a;Human bone;Chamber;TAQ;Gonçalvez 2003;n/a;Gonçalvez 2003,;n/a
16;Portugal;38,4351422;-7,44191726;Southwest;S109;Santa Margarida 3;Passage grave;Beta-166422;4270;40;-20.0;n/a;n/a;n/a;n/a;Human bone;Chamber;TAQ;Gonçalvez 2003;n/a;Gonçalvez 2003,;n/a
18;Portugal;38,4351422;-7,44191726;Southwest;S109;Santa Margarida 3;Passage grave;Beta-176897;4290;40;-19.7;n/a;n/a;n/a;n/a;Human bone;Chamber;TAQ;Gonçalvez 2003;n/a;Gonçalvez 2003,;n/a
230;Portugal;41,02333;-7,441677;West;S110;Senhora do Monte 3;Passage grave;ICEN-1201;4990;70;n/a;n/a;n/a;n/a;n/a;Charcoal;Corridor;Indet.;Cruz  1995;n/a;Cruz  1995,;n/a
234;Portugal;41,02333;-7,441677;West;S110;Senhora do Monte 3;Passage grave;GrN-21304;5060;50;n/a;n/a;n/a;n/a;n/a;Charcoal;Hearth tumulus;TPQ;Cruz 1995;n/a;Cruz 1995,;n/a
237;Portugal;41,02333;-7,441677;West;S110;Senhora do Monte 3;Passage grave;ICEN-1200;5100;70;n/a;n/a;n/a;n/a;n/a;Charcoal;Corridor;Indet.;Cruz  1995;n/a;Cruz  1995,;n/a
239;Portugal;41,02333;-7,441677;West;S110;Senhora do Monte 3;Passage grave;GrN-20791;5130;40;n/a;n/a;n/a;n/a;n/a;Charcoal;Corridor;TPQ;Cruz et al. 1995;n/a;Cruz et al. 1995,;n/a
383;Spain;40,013405;3,897066;East;S111;Ses Arenes de Baix;Tomb with triple outer wall/sepulcro de triple paramento;KIA-23403;3025;25;n/a;n/a;n/a;n/a;n/a;Human bone;Chamber;n/a;http://www.idearqueologia.org/c14/?ln=es#fila-tabla;n/a;n/a;n/a
386;Spain;40,013405;3,897066;East;S111;Ses Arenes de Baix;Tomb with triple outer wall/sepulcro de triple paramento;KIA-23404;3085;25;n/a;n/a;n/a;n/a;n/a;Human bone;Chamber;n/a;http://www.idearqueologia.org/c14/?ln=es#fila-tabla;n/a;n/a;n/a
389;Spain;40,013405;3,897066;East;S111;Ses Arenes de Baix;Tomb with triple outer wall/sepulcro de triple paramento;KIA-23405;3185;25;n/a;n/a;n/a;n/a;n/a;Human bone;Chamber;TAQ;Micó Pérez 2005, 289;n/a;Micó Pérez 2005, 289,;n/a
392;Spain;40,013405;3,897066;East;S111;Ses Arenes de Baix;Tomb with triple outer wall/sepulcro de triple paramento;KIA-23149;3225;35;n/a;n/a;n/a;n/a;n/a;Human bone;Chamber;TAQ;Micó Pérez 2005, 289;n/a;Micó Pérez 2005, 289,;n/a
393;Spain;40,013405;3,897066;East;S111;Ses Arenes de Baix;Tomb with triple outer wall/sepulcro de triple paramento;KIA-23407;3240;25;n/a;n/a;n/a;n/a;n/a;Human bone;Chamber;TAQ;Micó Pérez 2005, 288;n/a;Micó Pérez 2005, 288,;n/a
396;Spain;40,013405;3,897066;East;S111;Ses Arenes de Baix;Tomb with triple outer wall/sepulcro de triple paramento;KIA-23402;3290;25;n/a;n/a;n/a;n/a;n/a;Human bone;Chamber;TAQ;Micó Pérez 2005, 288;n/a;Micó Pérez 2005, 288,;n/a
400;Spain;40,013405;3,897066;East;S111;Ses Arenes de Baix;Tomb with triple outer wall/sepulcro de triple paramento;KIA-23150;3390;35;n/a;n/a;n/a;n/a;n/a;Human bone;Chamber;TAQ;Micó Pérez 2005, 287;n/a;Micó Pérez 2005, 287,;n/a
384;Spain;39,897395;4,112584;East;S112;Ses Roques Llises;Passage grave;KIA-18762;3030;40;n/a;n/a;n/a;n/a;n/a;Human bone;Chamber;TAQ;Micó Pérez 2005, 303;n/a;Micó Pérez 2005, 303,;n/a
388;Spain;39,897395;4,112584;East;S112;Ses Roques Llises;Passage grave;KIA-20204;3135;35;n/a;n/a;n/a;n/a;n/a;Human bone;Chamber;TAQ;Micó Pérez 2005, 303;n/a;Micó Pérez 2005, 303,;n/a
401;Spain;39,897395;4,112584;East;S112;Ses Roques Llises;Passage grave;KIA- 18761;3395;35;n/a;n/a;n/a;n/a;n/a;Human bone;Chamber;TAQ;Micó Pérez 2005, 302;n/a;Micó Pérez 2005, 302,;n/a
73;Spain;37,73527778;-5,481111111;South;S113;Setefilla;Megalithic grave;I-11069;3470;95;n/a;n/a;n/a;n/a;n/a;Charcoal;Settlement, level 13;Indet.;García Sanjuán 2009, 19;n/a;"García Sanjuán 2009, 19; Aubet Semmler et al 1983";n/a
76;Spain;37,73527778;-5,481111111;South;S113;Setefilla;Megalithic grave;I-11070;3520;95;n/a;n/a;n/a;n/a;n/a;Charcoal;Settlement, level 14;Indet.;García Sanjuán 2009, 19;n/a;"García Sanjuán 2009, 19; Aubet Semmler et al 1983";n/a
19;Portugal;38,1723;-7,6333;Southwest;S114;Sobreira de Cima 1;Hypogeum;Sac-2261;4500;50;-18.77;n/a;n/a;n/a;n/a;Human bone;Chamber;TAQ;Valera et al. 2008;n/a;Valera et al. 2008,;n/a
20;Portugal;38,1723;-7,6333;Southwest;S114;Sobreira de Cima 1;Hypogeum;Sac-2260;4530;50;-18.68;n/a;n/a;n/a;n/a;Human bone;Chamber;TAQ;Valera et al. 2008;n/a;Valera et al. 2008,;n/a
374;Spain;39,754016;3,158784;East;S115;Son Bauló de Dalt;Dolmen;KIA-11903;3305;25;n/a;n/a;n/a;n/a;n/a;Human bone;Chamber;TAQ;Micó Pérez  2005, 312;n/a;Micó Pérez  2005, 312,;n/a
376;Spain;39,754016;3,158784;East;S115;Son Bauló de Dalt;Dolmen;KIA-13225;3365;30;n/a;n/a;n/a;n/a;n/a;Human bone;Chamber;TAQ;Micó Pérez 2005, 311;n/a;Micó Pérez 2005, 311,;n/a
380;Spain;39,754016;3,158784;East;S115;Son Bauló de Dalt;Dolmen;UBAR-385;3470;120;n/a;n/a;n/a;n/a;n/a;Human bone;Chamber;TAQ;Micó Pérez  2005, 310;n/a;Micó Pérez  2005, 310,;n/a
381;Spain;39,754016;3,158784;East;S115;Son Bauló de Dalt;Dolmen;KIA-13224;3480;30;n/a;n/a;n/a;n/a;n/a;Human bone;Chamber;TAQ;Micó Pérez  2005, 310;n/a;Micó Pérez  2005, 310,;n/a
67;Spain;36,69916667;-4,849722222;South;S116;Tesorillo de la Llaná;Megalithic grave;GrN-26475;3250;50;n/a;n/a;n/a;n/a;n/a;Human bone;Burial chamber;Indet.;García Sanjuán  et al. 2011, Tab. 4;n/a;García Sanjuán  et al. 2011, Tab. 4,;n/a
68;Spain;36,69916667;-4,849722222;South;S116;Tesorillo de la Llaná;Megalithic grave;GrN-26488;3250;40;n/a;n/a;n/a;n/a;n/a;Human bone;Burial chamber;Indet.;"García Sanjuán 2009, 19; Fernández and Márquez 2001";n/a;García Sanjuán 2009, 19,;n/a
119;Spain;36,69916667;-4,849722222;South;S116;Tesorillo de la Llaná;Megalithic grave;GrA-37339;4055;35;n/a;n/a;n/a;n/a;n/a;Human bone;Antechamber;n/a;García Sanjuán  et al. 2011;n/a;n/a;n/a
549;Spain;40,081285;-6,37668;Centre;S117;Tremedal;Passage grave;GrA-15941;4860;60;n/a;n/a;n/a;n/a;n/a;Charcoal;Basement tumulus;TPQ;Ruiz-Gálvez Priego 2000;n/a;Ruiz-Gálvez Priego 2000,;n/a
551;Spain;40,081285;-6,37668;Centre;S117;Tremedal;Passage grave;GrA-15903;5000;60;n/a;n/a;n/a;n/a;n/a;Charcoal;Corridor;Indet.;Ruiz-Gálvez Priego 2000;n/a;Ruiz-Gálvez Priego 2000,;n/a
10;Portugal;38,495817;-8,06088;Southwest;S118;Vale de Rodrigo 2;Passage grave;Ua-10831;3905;75;n/a;n/a;n/a;n/a;n/a;Charcoal;Charcoal by an artifact accumulation in front of the corridor;TAQ;Larsson 2000, 451;n/a;Larsson 2000, 451,;n/a
26;Portugal;38,495817;-8,06088;Southwest;S118;Vale de Rodrigo 2;Passage grave;Ua-10830;4905;70;n/a;n/a;n/a;n/a;n/a;Charcoal;Settlement layer under grave;TPQ;Larsson 2000, 450;n/a;Larsson 2000, 450,;n/a
538;Spain;39,98694;-4,203279;Centre;S119;Valle de las Higueras 3;Rock-cut tomb;GX-29950;3650;40;n/a;n/a;n/a;n/a;n/a;Human bone;n/a;TAQ;Bueno Ramírez et al. 2010, Tab 3;n/a;Bueno Ramírez et al. 2010, Tab 3,;n/a
540;Spain;39,98694;-4,203279;Centre;S119;Valle de las Higueras 3;Rock-cut tomb;Beta-157730;3810;40;n/a;n/a;n/a;n/a;n/a;Human bone;n/a;TAQ;Bueno Ramírez et al. 2010, Tab 3;n/a;Bueno Ramírez et al. 2010, Tab 3,;n/a
542;Spain;39,98694;-4,203279;Centre;S119;Valle de las Higueras 3;Rock-cut tomb;Beta-157732;3830;40;n/a;n/a;n/a;n/a;n/a;Human bone;n/a;TAQ;Bueno Ramírez et al. 2010, Tab 3;n/a;Bueno Ramírez et al. 2010, Tab 3,;n/a
543;Spain;39,98694;-4,203279;Centre;S119;Valle de las Higueras 3;Rock-cut tomb;Beta-205141;3860;40;n/a;n/a;n/a;n/a;n/a;Human bone;n/a;TAQ;Bueno Ramírez et al. 2010, Tab 3;Bueno Ramírez et al. 2005;Bueno Ramírez et al. 2010, Tab 3,Bueno Ramírez et al. 2005;n/a
537;Spain;39,98691;-4,203567;Centre;S120;Valle de las Higueras 7;Rock-cut tomb;Beta-218062;3330;40;n/a;n/a;n/a;n/a;n/a;Human bone;n/a;TAQ;Bueno Ramírez et al. 2010, Tab 3;Bueno Ramírez et al. 2007;Bueno Ramírez et al. 2010, Tab 3,Bueno Ramírez et al. 2007;n/a
544;Spain;39,98691;-4,203567;Centre;S120;Valle de las Higueras 7;Rock-cut tomb;Beta-216245;3970;40;n/a;n/a;n/a;n/a;n/a;Human bone;n/a;TAQ;Bueno Ramírez et al. 2010, Tab 3;Bueno Ramírez et al. 2007;Bueno Ramírez et al. 2010, Tab 3,Bueno Ramírez et al. 2007;n/a
